{"type": "FeatureCollection", "features": [{"type": "Feature", "geometry": {"type": "Point", "coordinates": [10.504482483710902, 46.06120898283535]}, "properties": {}}, {"type": "Feature", "geometry": {"type": "Point", "coordinates": [10.964328635282564, 45.982800435873415]}, "properties": {}}, {"type": "Feature", "geometry": {"type": "Point", "coordinates": [11.232155934074113, 45.94619570406235]}, "properties": {}}, {"type": "Feature", "geometry": {"type": "Point", "coordinates": [10.874833707185342, 45.7909132871981]}, "properties": {}}, {"type": "Feature", "geometry": {"type": "Point", "coordinates": [10.88147926761755, 46.21174716638332]}, "properties": {}}, {"type": "Feature", "geometry": {"type": "Point", "coordinates": [11.072561747788766, 46.32667133256299]}, "properties": {}}, {"type": "Feature", "geometry": {"type": "Point", "coordinates": [11.074618288711761, 46.47978400307162]}, "properties": {}}, {"type": "Feature", "geometry": {"type": "Point", "coordinates": [10.954908303830512, 45.714594932943314]}, "properties": {}}, {"type": "Feature", "geometry": {"type": "Point", "coordinates": [10.965829433153374, 46.10201675971117]}, "properties": {}}, {"type": "Feature", "geometry": {"type": "Point", "coordinates": [10.993903424240525, 45.69765377348002]}, "properties": {}}, {"type": "Feature", "geometry": {"type": "Point", "coordinates": [11.10074393148488, 46.094683064025205]}, "properties": {}}, {"type": "Feature", "geometry": {"type": "Point", "coordinates": [11.647654057747454, 46.24210377990011]}, "properties": {}}, {"type": "Feature", "geometry": {"type": "Point", "coordinates": [10.592787439190035, 46.18728659237498]}, "properties": {}}, {"type": "Feature", "geometry": {"type": "Point", "coordinates": [11.122377813359172, 45.784752732400406]}, "properties": {}}, {"type": "Feature", "geometry": {"type": "Point", "coordinates": [11.056814092710026, 46.31530322082403]}, "properties": {}}, {"type": "Feature", "geometry": {"type": "Point", "coordinates": [10.717658879150731, 45.8871262491109]}, "properties": {}}, {"type": "Feature", "geometry": {"type": "Point", "coordinates": [10.75850345678917, 45.88764757123542]}, "properties": {}}, {"type": "Feature", "geometry": {"type": "Point", "coordinates": [11.556832975047387, 46.26128222707751]}, "properties": {}}, {"type": "Feature", "geometry": {"type": "Point", "coordinates": [11.838996774894902, 46.411199214428414]}, "properties": {}}, {"type": "Feature", "geometry": {"type": "Point", "coordinates": [11.507423061571519, 46.10582127752067]}, "properties": {}}, {"type": "Feature", "geometry": {"type": "Point", "coordinates": [11.020335134668356, 45.93808071458437]}, "properties": {}}, {"type": "Feature", "geometry": {"type": "Point", "coordinates": [11.220098519682233, 45.850794262833965]}, "properties": {}}, {"type": "Feature", "geometry": {"type": "Point", "coordinates": [10.74817041635323, 46.36247223482936]}, "properties": {}}, {"type": "Feature", "geometry": {"type": "Point", "coordinates": [11.78143719595619, 46.205510817398206]}, "properties": {}}, {"type": "Feature", "geometry": {"type": "Point", "coordinates": [10.66248798987673, 46.30969970278104]}, "properties": {}}, {"type": "Feature", "geometry": {"type": "Point", "coordinates": [11.108632651168042, 46.07632685649599]}, "properties": {}}, {"type": "Feature", "geometry": {"type": "Point", "coordinates": [10.953547207905167, 45.98321458131884]}, "properties": {}}, {"type": "Feature", "geometry": {"type": "Point", "coordinates": [11.110266693522515, 46.111738948197036]}, "properties": {}}, {"type": "Feature", "geometry": {"type": "Point", "coordinates": [10.823914272778733, 45.899488575926014]}, "properties": {}}, {"type": "Feature", "geometry": {"type": "Point", "coordinates": [11.666410687689808, 46.07466612302772]}, "properties": {}}, {"type": "Feature", "geometry": {"type": "Point", "coordinates": [11.903378567161765, 46.23127267860786]}, "properties": {}}, {"type": "Feature", "geometry": {"type": "Point", "coordinates": [11.133134938671787, 46.13668103211773]}, "properties": {}}, {"type": "Feature", "geometry": {"type": "Point", "coordinates": [11.153011298974176, 46.18182204656045]}, "properties": {}}, {"type": "Feature", "geometry": {"type": "Point", "coordinates": [10.78003914414574, 46.31972249574496]}, "properties": {}}, {"type": "Feature", "geometry": {"type": "Point", "coordinates": [10.560876654958257, 45.79041467393942]}, "properties": {}}, {"type": "Feature", "geometry": {"type": "Point", "coordinates": [10.965308510203945, 45.87615375329265]}, "properties": {}}, {"type": "Feature", "geometry": {"type": "Point", "coordinates": [10.658211384882378, 46.11040019703792]}, "properties": {}}, {"type": "Feature", "geometry": {"type": "Point", "coordinates": [11.675716973956183, 46.275971175807044]}, "properties": {}}, {"type": "Feature", "geometry": {"type": "Point", "coordinates": [11.723467314871634, 46.428775788969155]}, "properties": {}}, {"type": "Feature", "geometry": {"type": "Point", "coordinates": [11.010059719924076, 46.12553649791933]}, "properties": {}}, {"type": "Feature", "geometry": {"type": "Point", "coordinates": [11.276643575709993, 46.13606618796642]}, "properties": {}}, {"type": "Feature", "geometry": {"type": "Point", "coordinates": [11.12670698426803, 46.38283653130614]}, "properties": {}}, {"type": "Feature", "geometry": {"type": "Point", "coordinates": [11.002373276636744, 46.43930114838947]}, "properties": {}}, {"type": "Feature", "geometry": {"type": "Point", "coordinates": [11.004610933103898, 46.073771669867725]}, "properties": {}}, {"type": "Feature", "geometry": {"type": "Point", "coordinates": [11.424774568094577, 46.01713773504972]}, "properties": {}}, {"type": "Feature", "geometry": {"type": "Point", "coordinates": [10.933210922255096, 45.79225268372874]}, "properties": {}}, {"type": "Feature", "geometry": {"type": "Point", "coordinates": [11.301173010043453, 46.043969959333886]}, "properties": {}}, {"type": "Feature", "geometry": {"type": "Point", "coordinates": [11.561679314371165, 46.01789552852917]}, "properties": {}}, {"type": "Feature", "geometry": {"type": "Point", "coordinates": [10.556394590800672, 45.97131124096729]}, "properties": {}}, {"type": "Feature", "geometry": {"type": "Point", "coordinates": [10.869043207459905, 46.27247643754054]}, "properties": {}}, {"type": "Feature", "geometry": {"type": "Point", "coordinates": [11.681890087805932, 46.13094827955946]}, "properties": {}}, {"type": "Feature", "geometry": {"type": "Point", "coordinates": [11.336822800891172, 46.27574501746393]}, "properties": {}}, {"type": "Feature", "geometry": {"type": "Point", "coordinates": [10.65376342205914, 45.92192901020091]}, "properties": {}}, {"type": "Feature", "geometry": {"type": "Point", "coordinates": [11.078302667174993, 46.4699237987482]}, "properties": {}}, {"type": "Feature", "geometry": {"type": "Point", "coordinates": [10.628010596050666, 46.14979867767847]}, "properties": {}}, {"type": "Feature", "geometry": {"type": "Point", "coordinates": [11.078432062122646, 45.95303433628967]}, "properties": {}}, {"type": "Feature", "geometry": {"type": "Point", "coordinates": [10.724399858096232, 46.203094413079]}, "properties": {}}, {"type": "Feature", "geometry": {"type": "Point", "coordinates": [11.420069548268227, 46.26640329746176]}, "properties": {}}, {"type": "Feature", "geometry": {"type": "Point", "coordinates": [11.44905793358445, 46.05097796169199]}, "properties": {}}, {"type": "Feature", "geometry": {"type": "Point", "coordinates": [11.085131455803825, 46.19405150039665]}, "properties": {}}, {"type": "Feature", "geometry": {"type": "Point", "coordinates": [10.932724187589319, 46.239425766458076]}, "properties": {}}, {"type": "Feature", "geometry": {"type": "Point", "coordinates": [11.709532919568602, 46.351199517904924]}, "properties": {}}, {"type": "Feature", "geometry": {"type": "Point", "coordinates": [11.297521736822487, 46.16309255477519]}, "properties": {}}, {"type": "Feature", "geometry": {"type": "Point", "coordinates": [11.21538333580752, 46.4625477551466]}, "properties": {}}, {"type": "Feature", "geometry": {"type": "Point", "coordinates": [10.569240042095341, 45.80397565378223]}, "properties": {}}, {"type": "Feature", "geometry": {"type": "Point", "coordinates": [10.692493839002065, 45.9980854838728]}, "properties": {}}, {"type": "Feature", "geometry": {"type": "Point", "coordinates": [11.133311845117353, 45.82673299457708]}, "properties": {}}, {"type": "Feature", "geometry": {"type": "Point", "coordinates": [11.820977742604477, 46.39864968832516]}, "properties": {}}, {"type": "Feature", "geometry": {"type": "Point", "coordinates": [11.782916616697149, 46.42729967433679]}, "properties": {}}, {"type": "Feature", "geometry": {"type": "Point", "coordinates": [11.01103116476201, 46.42928714489206]}, "properties": {}}, {"type": "Feature", "geometry": {"type": "Point", "coordinates": [11.857390406946758, 46.437553082645515]}, "properties": {}}, {"type": "Feature", "geometry": {"type": "Point", "coordinates": [11.225022034281206, 46.05252925728573]}, "properties": {}}, {"type": "Feature", "geometry": {"type": "Point", "coordinates": [10.806371607956551, 46.326804468705504]}, "properties": {}}, {"type": "Feature", "geometry": {"type": "Point", "coordinates": [11.02545078373792, 45.89229975080825]}, "properties": {}}, {"type": "Feature", "geometry": {"type": "Point", "coordinates": [10.926187092523321, 46.21038710041864]}, "properties": {}}, {"type": "Feature", "geometry": {"type": "Point", "coordinates": [10.849462146638416, 46.03606480320688]}, "properties": {}}, {"type": "Feature", "geometry": {"type": "Point", "coordinates": [10.644237963168703, 46.2845777104775]}, "properties": {}}, {"type": "Feature", "geometry": {"type": "Point", "coordinates": [11.109645876043302, 45.859562101752346]}, "properties": {}}, {"type": "Feature", "geometry": {"type": "Point", "coordinates": [11.673330953244399, 46.37126984490841]}, "properties": {}}, {"type": "Feature", "geometry": {"type": "Point", "coordinates": [11.043134258426683, 46.27296724458062]}, "properties": {}}, {"type": "Feature", "geometry": {"type": "Point", "coordinates": [11.719812817154471, 46.50110199207295]}, "properties": {}}, {"type": "Feature", "geometry": {"type": "Point", "coordinates": [11.15052165552947, 45.753295534970874]}, "properties": {}}, {"type": "Feature", "geometry": {"type": "Point", "coordinates": [10.684630280039954, 45.933057103289215]}, "properties": {}}, {"type": "Feature", "geometry": {"type": "Point", "coordinates": [11.129697512937321, 45.86196753219351]}, "properties": {}}, {"type": "Feature", "geometry": {"type": "Point", "coordinates": [11.263253640223777, 46.221810889199936]}, "properties": {}}, {"type": "Feature", "geometry": {"type": "Point", "coordinates": [10.905978098272517, 46.30147042394755]}, "properties": {}}, {"type": "Feature", "geometry": {"type": "Point", "coordinates": [10.56608307645599, 45.95487599536134]}, "properties": {}}, {"type": "Feature", "geometry": {"type": "Point", "coordinates": [10.494203881349797, 46.00451061717542]}, "properties": {}}, {"type": "Feature", "geometry": {"type": "Point", "coordinates": [10.666352207534313, 46.342181780946724]}, "properties": {}}, {"type": "Feature", "geometry": {"type": "Point", "coordinates": [10.663044957214906, 46.17338872426016]}, "properties": {}}, {"type": "Feature", "geometry": {"type": "Point", "coordinates": [11.09407923782169, 46.1040120680511]}, "properties": {}}, {"type": "Feature", "geometry": {"type": "Point", "coordinates": [10.935354083068153, 46.08597066856226]}, "properties": {}}, {"type": "Feature", "geometry": {"type": "Point", "coordinates": [11.759331861704299, 46.49874586460321]}, "properties": {}}, {"type": "Feature", "geometry": {"type": "Point", "coordinates": [10.905769009910147, 45.87727529469084]}, "properties": {}}, {"type": "Feature", "geometry": {"type": "Point", "coordinates": [10.600489882944624, 46.18371947348903]}, "properties": {}}, {"type": "Feature", "geometry": {"type": "Point", "coordinates": [11.419427259000939, 46.05045775037694]}, "properties": {}}, {"type": "Feature", "geometry": {"type": "Point", "coordinates": [11.92632630916578, 46.16829678896112]}, "properties": {}}, {"type": "Feature", "geometry": {"type": "Point", "coordinates": [10.778922243946338, 45.91943912982857]}, "properties": {}}, {"type": "Feature", "geometry": {"type": "Point", "coordinates": [10.507716011522916, 46.02646003984261]}, "properties": {}}, {"type": "Feature", "geometry": {"type": "Point", "coordinates": [11.670562193645141, 46.20104259437931]}, "properties": {}}, {"type": "Feature", "geometry": {"type": "Point", "coordinates": [11.573691622777703, 46.155655328156406]}, "properties": {}}, {"type": "Feature", "geometry": {"type": "Point", "coordinates": [11.067786941686894, 46.31540042647258]}, "properties": {}}, {"type": "Feature", "geometry": {"type": "Point", "coordinates": [11.135170349081132, 46.42463503419938]}, "properties": {}}, {"type": "Feature", "geometry": {"type": "Point", "coordinates": [11.4798646356491, 46.325058373710895]}, "properties": {}}, {"type": "Feature", "geometry": {"type": "Point", "coordinates": [11.60930905199725, 46.02847828803483]}, "properties": {}}, {"type": "Feature", "geometry": {"type": "Point", "coordinates": [11.636887627591582, 46.1823945330484]}, "properties": {}}, {"type": "Feature", "geometry": {"type": "Point", "coordinates": [11.60479978301208, 46.16994265979456]}, "properties": {}}, {"type": "Feature", "geometry": {"type": "Point", "coordinates": [11.582942192893672, 46.05902153531917]}, "properties": {}}, {"type": "Feature", "geometry": {"type": "Point", "coordinates": [10.613147818977058, 45.869638974890975]}, "properties": {}}, {"type": "Feature", "geometry": {"type": "Point", "coordinates": [11.736219025206777, 46.10565102874923]}, "properties": {}}, {"type": "Feature", "geometry": {"type": "Point", "coordinates": [11.566910300202414, 46.148107681422275]}, "properties": {}}, {"type": "Feature", "geometry": {"type": "Point", "coordinates": [10.640651544157176, 45.9291642890461]}, "properties": {}}, {"type": "Feature", "geometry": {"type": "Point", "coordinates": [11.474363503403149, 46.21639437445444]}, "properties": {}}, {"type": "Feature", "geometry": {"type": "Point", "coordinates": [11.127544784271484, 45.774975044155084]}, "properties": {}}, {"type": "Feature", "geometry": {"type": "Point", "coordinates": [11.426175498684819, 46.15257077822555]}, "properties": {}}, {"type": "Feature", "geometry": {"type": "Point", "coordinates": [11.535497808697038, 46.08359891997799]}, "properties": {}}, {"type": "Feature", "geometry": {"type": "Point", "coordinates": [10.71675013201119, 45.88716534550776]}, "properties": {}}, {"type": "Feature", "geometry": {"type": "Point", "coordinates": [11.858419689216623, 46.11642535280854]}, "properties": {}}, {"type": "Feature", "geometry": {"type": "Point", "coordinates": [11.369523677456883, 46.29513961544242]}, "properties": {}}, {"type": "Feature", "geometry": {"type": "Point", "coordinates": [10.769897519644868, 46.12341815408728]}, "properties": {}}, {"type": "Feature", "geometry": {"type": "Point", "coordinates": [10.865985940523094, 46.06540118884137]}, "properties": {}}, {"type": "Feature", "geometry": {"type": "Point", "coordinates": [11.49170930436403, 46.08282611757674]}, "properties": {}}, {"type": "Feature", "geometry": {"type": "Point", "coordinates": [11.331535608648515, 46.214013697457965]}, "properties": {}}, {"type": "Feature", "geometry": {"type": "Point", "coordinates": [10.659895457330485, 46.41681843983191]}, "properties": {}}, {"type": "Feature", "geometry": {"type": "Point", "coordinates": [10.892444161954685, 46.174976039548945]}, "properties": {}}, {"type": "Feature", "geometry": {"type": "Point", "coordinates": [10.871750594643371, 46.082782493658264]}, "properties": {}}, {"type": "Feature", "geometry": {"type": "Point", "coordinates": [10.819123198789683, 45.92530101863735]}, "properties": {}}, {"type": "Feature", "geometry": {"type": "Point", "coordinates": [11.007707432090498, 46.406876543928234]}, "properties": {}}, {"type": "Feature", "geometry": {"type": "Point", "coordinates": [11.785616715576543, 46.49631919822449]}, "properties": {}}, {"type": "Feature", "geometry": {"type": "Point", "coordinates": [11.701829540012634, 46.18978699597291]}, "properties": {}}, {"type": "Feature", "geometry": {"type": "Point", "coordinates": [10.670979117913634, 46.20972428138271]}, "properties": {}}, {"type": "Feature", "geometry": {"type": "Point", "coordinates": [11.049140013233668, 46.16440994696493]}, "properties": {}}, {"type": "Feature", "geometry": {"type": "Point", "coordinates": [10.547202995452874, 46.106365250686345]}, "properties": {}}, {"type": "Feature", "geometry": {"type": "Point", "coordinates": [11.389412543967358, 46.06123205965052]}, "properties": {}}, {"type": "Feature", "geometry": {"type": "Point", "coordinates": [11.646368834465235, 46.317328486178184]}, "properties": {}}, {"type": "Feature", "geometry": {"type": "Point", "coordinates": [11.797663677054656, 46.33878947495018]}, "properties": {}}, {"type": "Feature", "geometry": {"type": "Point", "coordinates": [11.082058886783594, 45.82619092608702]}, "properties": {}}, {"type": "Feature", "geometry": {"type": "Point", "coordinates": [11.182939322425398, 46.36506451181596]}, "properties": {}}, {"type": "Feature", "geometry": {"type": "Point", "coordinates": [10.586994269202531, 45.82699764639691]}, "properties": {}}, {"type": "Feature", "geometry": {"type": "Point", "coordinates": [11.450130073260055, 46.05122279555163]}, "properties": {}}, {"type": "Feature", "geometry": {"type": "Point", "coordinates": [11.064476700025505, 46.40353886862906]}, "properties": {}}, {"type": "Feature", "geometry": {"type": "Point", "coordinates": [10.888179233168334, 45.77983226076434]}, "properties": {}}, {"type": "Feature", "geometry": {"type": "Point", "coordinates": [10.96901514133457, 46.0386826868808]}, "properties": {}}, {"type": "Feature", "geometry": {"type": "Point", "coordinates": [10.859839105443408, 46.40454132328993]}, "properties": {}}, {"type": "Feature", "geometry": {"type": "Point", "coordinates": [11.717040658691495, 46.2253694360411]}, "properties": {}}, {"type": "Feature", "geometry": {"type": "Point", "coordinates": [11.183082250817861, 45.99879380134471]}, "properties": {}}, {"type": "Feature", "geometry": {"type": "Point", "coordinates": [11.249731522565837, 46.13730364141518]}, "properties": {}}, {"type": "Feature", "geometry": {"type": "Point", "coordinates": [11.350283947029732, 46.20564066537127]}, "properties": {}}, {"type": "Feature", "geometry": {"type": "Point", "coordinates": [11.65220892232011, 46.26965613022904]}, "properties": {}}, {"type": "Feature", "geometry": {"type": "Point", "coordinates": [10.519881943266421, 46.066744884798815]}, "properties": {}}, {"type": "Feature", "geometry": {"type": "Point", "coordinates": [11.509730356616029, 46.208236282025474]}, "properties": {}}, {"type": "Feature", "geometry": {"type": "Point", "coordinates": [10.705453851941558, 46.38403378439657]}, "properties": {}}, {"type": "Feature", "geometry": {"type": "Point", "coordinates": [11.258906169163895, 45.98857661119673]}, "properties": {}}, {"type": "Feature", "geometry": {"type": "Point", "coordinates": [10.985154330582658, 46.12181037955649]}, "properties": {}}, {"type": "Feature", "geometry": {"type": "Point", "coordinates": [10.925144133630504, 46.1069025887409]}, "properties": {}}, {"type": "Feature", "geometry": {"type": "Point", "coordinates": [11.78966098250517, 46.29118907309281]}, "properties": {}}, {"type": "Feature", "geometry": {"type": "Point", "coordinates": [11.397716587548755, 46.12792054571074]}, "properties": {}}, {"type": "Feature", "geometry": {"type": "Point", "coordinates": [11.43007818821427, 46.196753893936545]}, "properties": {}}, {"type": "Feature", "geometry": {"type": "Point", "coordinates": [11.28903918954027, 46.251959179069104]}, "properties": {}}, {"type": "Feature", "geometry": {"type": "Point", "coordinates": [11.126714740165104, 46.20668378884022]}, "properties": {}}, {"type": "Feature", "geometry": {"type": "Point", "coordinates": [10.907139027068267, 46.420076909190115]}, "properties": {}}, {"type": "Feature", "geometry": {"type": "Point", "coordinates": [10.746425939266944, 46.34292146289498]}, "properties": {}}, {"type": "Feature", "geometry": {"type": "Point", "coordinates": [10.590106766646624, 45.88975814946282]}, "properties": {}}, {"type": "Feature", "geometry": {"type": "Point", "coordinates": [11.641170658485525, 46.1292702623653]}, "properties": {}}, {"type": "Feature", "geometry": {"type": "Point", "coordinates": [11.587584604061751, 46.33310986119597]}, "properties": {}}, {"type": "Feature", "geometry": {"type": "Point", "coordinates": [11.206048079369353, 46.1333466269826]}, "properties": {}}, {"type": "Feature", "geometry": {"type": "Point", "coordinates": [11.258546019238429, 46.225696142863654]}, "properties": {}}, {"type": "Feature", "geometry": {"type": "Point", "coordinates": [11.01861548109478, 46.36342625479255]}, "properties": {}}, {"type": "Feature", "geometry": {"type": "Point", "coordinates": [11.116659771020972, 45.92651367661605]}, "properties": {}}, {"type": "Feature", "geometry": {"type": "Point", "coordinates": [11.602584052529874, 46.27215429703252]}, "properties": {}}, {"type": "Feature", "geometry": {"type": "Point", "coordinates": [10.667855747431085, 46.18639001811789]}, "properties": {}}, {"type": "Feature", "geometry": {"type": "Point", "coordinates": [11.10000865573857, 45.93169931795579]}, "properties": {}}, {"type": "Feature", "geometry": {"type": "Point", "coordinates": [10.832019560519324, 45.974114329797786]}, "properties": {}}, {"type": "Feature", "geometry": {"type": "Point", "coordinates": [11.52976830130947, 46.282257485436425]}, "properties": {}}, {"type": "Feature", "geometry": {"type": "Point", "coordinates": [10.861434393060575, 46.292013693407846]}, "properties": {}}, {"type": "Feature", "geometry": {"type": "Point", "coordinates": [11.614317678054544, 46.0617244907507]}, "properties": {}}, {"type": "Feature", "geometry": {"type": "Point", "coordinates": [11.69689096746223, 46.3102058322539]}, "properties": {}}, {"type": "Feature", "geometry": {"type": "Point", "coordinates": [11.51676955865995, 46.15209557237445]}, "properties": {}}, {"type": "Feature", "geometry": {"type": "Point", "coordinates": [10.782478778143387, 46.10755866138104]}, "properties": {}}, {"type": "Feature", "geometry": {"type": "Point", "coordinates": [10.597513106107854, 46.15220747240051]}, "properties": {}}, {"type": "Feature", "geometry": {"type": "Point", "coordinates": [11.737930473528461, 46.348010307178534]}, "properties": {}}, {"type": "Feature", "geometry": {"type": "Point", "coordinates": [11.650191974763645, 46.114546605103776]}, "properties": {}}, {"type": "Feature", "geometry": {"type": "Point", "coordinates": [11.148733984472848, 46.106406403521746]}, "properties": {}}, {"type": "Feature", "geometry": {"type": "Point", "coordinates": [11.319169603546737, 46.128292723977]}, "properties": {}}, {"type": "Feature", "geometry": {"type": "Point", "coordinates": [11.329874363069806, 45.952797551342975]}, "properties": {}}, {"type": "Feature", "geometry": {"type": "Point", "coordinates": [11.04959848776934, 46.27154715698568]}, "properties": {}}, {"type": "Feature", "geometry": {"type": "Point", "coordinates": [11.104385955204146, 45.96123103567746]}, "properties": {}}, {"type": "Feature", "geometry": {"type": "Point", "coordinates": [11.077508093792302, 46.35541363917127]}, "properties": {}}, {"type": "Feature", "geometry": {"type": "Point", "coordinates": [11.74653705994216, 46.492857625487055]}, "properties": {}}, {"type": "Feature", "geometry": {"type": "Point", "coordinates": [10.588818737513032, 46.307275174810016]}, "properties": {}}, {"type": "Feature", "geometry": {"type": "Point", "coordinates": [10.712962752088963, 46.137268450692524]}, "properties": {}}, {"type": "Feature", "geometry": {"type": "Point", "coordinates": [11.489529881842003, 46.209210915646786]}, "properties": {}}, {"type": "Feature", "geometry": {"type": "Point", "coordinates": [11.162583675546397, 45.736212360511566]}, "properties": {}}, {"type": "Feature", "geometry": {"type": "Point", "coordinates": [10.56465423214037, 45.887895926215904]}, "properties": {}}, {"type": "Feature", "geometry": {"type": "Point", "coordinates": [10.893485054940259, 46.052647625622456]}, "properties": {}}, {"type": "Feature", "geometry": {"type": "Point", "coordinates": [10.542904455016028, 45.84877994391366]}, "properties": {}}, {"type": "Feature", "geometry": {"type": "Point", "coordinates": [10.820515977986558, 45.86668757839958]}, "properties": {}}, {"type": "Feature", "geometry": {"type": "Point", "coordinates": [10.671780919850471, 46.052522052013266]}, "properties": {}}, {"type": "Feature", "geometry": {"type": "Point", "coordinates": [11.105978228788285, 45.70856709583988]}, "properties": {}}, {"type": "Feature", "geometry": {"type": "Point", "coordinates": [11.064945596950588, 45.73761019510177]}, "properties": {}}, {"type": "Feature", "geometry": {"type": "Point", "coordinates": [10.933307311631312, 45.79462992235567]}, "properties": {}}, {"type": "Feature", "geometry": {"type": "Point", "coordinates": [10.82585769421979, 46.37873099397139]}, "properties": {}}, {"type": "Feature", "geometry": {"type": "Point", "coordinates": [10.9881985472085, 45.99940061108572]}, "properties": {}}, {"type": "Feature", "geometry": {"type": "Point", "coordinates": [10.782102129413243, 46.12507714488316]}, "properties": {}}, {"type": "Feature", "geometry": {"type": "Point", "coordinates": [11.289393068095086, 46.194629152815104]}, "properties": {}}, {"type": "Feature", "geometry": {"type": "Point", "coordinates": [10.977916267460426, 45.9215077117985]}, "properties": {}}, {"type": "Feature", "geometry": {"type": "Point", "coordinates": [10.62254138647412, 46.26275827023537]}, "properties": {}}, {"type": "Feature", "geometry": {"type": "Point", "coordinates": [10.742222316144836, 46.19568341987134]}, "properties": {}}, {"type": "Feature", "geometry": {"type": "Point", "coordinates": [10.980287145073548, 45.69580781402508]}, "properties": {}}, {"type": "Feature", "geometry": {"type": "Point", "coordinates": [10.965385240385684, 46.319556392367666]}, "properties": {}}, {"type": "Feature", "geometry": {"type": "Point", "coordinates": [11.062759132379993, 46.316043295348116]}, "properties": {}}, {"type": "Feature", "geometry": {"type": "Point", "coordinates": [11.105532125756122, 46.21083205548598]}, "properties": {}}, {"type": "Feature", "geometry": {"type": "Point", "coordinates": [11.517873506465346, 46.145337168587986]}, "properties": {}}, {"type": "Feature", "geometry": {"type": "Point", "coordinates": [10.946092781845437, 46.19470744325654]}, "properties": {}}, {"type": "Feature", "geometry": {"type": "Point", "coordinates": [11.081499753934741, 46.22250833719702]}, "properties": {}}, {"type": "Feature", "geometry": {"type": "Point", "coordinates": [11.38112898801102, 46.12722048497456]}, "properties": {}}, {"type": "Feature", "geometry": {"type": "Point", "coordinates": [10.5729059558646, 46.19063981613547]}, "properties": {}}, {"type": "Feature", "geometry": {"type": "Point", "coordinates": [10.961890371097523, 46.266624024340885]}, "properties": {}}, {"type": "Feature", "geometry": {"type": "Point", "coordinates": [11.46327000176842, 46.138519790182826]}, "properties": {}}, {"type": "Feature", "geometry": {"type": "Point", "coordinates": [10.84387698012705, 46.17466244169478]}, "properties": {}}, {"type": "Feature", "geometry": {"type": "Point", "coordinates": [10.953909795590643, 45.91403006775494]}, "properties": {}}, {"type": "Feature", "geometry": {"type": "Point", "coordinates": [10.902705735113944, 45.774304664458015]}, "properties": {}}, {"type": "Feature", "geometry": {"type": "Point", "coordinates": [10.629676546229648, 46.27437690371256]}, "properties": {}}, {"type": "Feature", "geometry": {"type": "Point", "coordinates": [11.19405772357535, 46.448965926403154]}, "properties": {}}, {"type": "Feature", "geometry": {"type": "Point", "coordinates": [11.222900380629117, 46.0328654497817]}, "properties": {}}, {"type": "Feature", "geometry": {"type": "Point", "coordinates": [11.055477053765085, 46.00228622461812]}, "properties": {}}, {"type": "Feature", "geometry": {"type": "Point", "coordinates": [11.670751105524413, 46.075205530785276]}, "properties": {}}, {"type": "Feature", "geometry": {"type": "Point", "coordinates": [10.990400972870207, 45.97987658584688]}, "properties": {}}, {"type": "Feature", "geometry": {"type": "Point", "coordinates": [10.51848177557301, 45.83000097252111]}, "properties": {}}, {"type": "Feature", "geometry": {"type": "Point", "coordinates": [10.903655366587662, 45.844896123454845]}, "properties": {}}, {"type": "Feature", "geometry": {"type": "Point", "coordinates": [11.750189599373272, 46.37096166268099]}, "properties": {}}, {"type": "Feature", "geometry": {"type": "Point", "coordinates": [10.507093675093348, 45.972938729325996]}, "properties": {}}, {"type": "Feature", "geometry": {"type": "Point", "coordinates": [10.737599098372023, 46.47637117954689]}, "properties": {}}, {"type": "Feature", "geometry": {"type": "Point", "coordinates": [11.017881448438086, 45.75900272656622]}, "properties": {}}, {"type": "Feature", "geometry": {"type": "Point", "coordinates": [11.673333258468665, 46.30092687067803]}, "properties": {}}, {"type": "Feature", "geometry": {"type": "Point", "coordinates": [10.619742361059675, 46.34057676941059]}, "properties": {}}, {"type": "Feature", "geometry": {"type": "Point", "coordinates": [11.366296219774453, 46.088301712404494]}, "properties": {}}, {"type": "Feature", "geometry": {"type": "Point", "coordinates": [11.655780630035846, 46.29676946310526]}, "properties": {}}, {"type": "Feature", "geometry": {"type": "Point", "coordinates": [11.604974041480975, 46.101460270272995]}, "properties": {}}, {"type": "Feature", "geometry": {"type": "Point", "coordinates": [11.095092371954113, 46.17720715224924]}, "properties": {}}, {"type": "Feature", "geometry": {"type": "Point", "coordinates": [10.901137618788205, 45.91087009984214]}, "properties": {}}, {"type": "Feature", "geometry": {"type": "Point", "coordinates": [10.607951348005859, 46.02115088660847]}, "properties": {}}, {"type": "Feature", "geometry": {"type": "Point", "coordinates": [11.609922769695267, 46.34879852903866]}, "properties": {}}, {"type": "Feature", "geometry": {"type": "Point", "coordinates": [11.58490466507218, 46.18909223317388]}, "properties": {}}, {"type": "Feature", "geometry": {"type": "Point", "coordinates": [10.854356691262467, 46.234418056294224]}, "properties": {}}, {"type": "Feature", "geometry": {"type": "Point", "coordinates": [10.971532866302526, 45.78513184424891]}, "properties": {}}, {"type": "Feature", "geometry": {"type": "Point", "coordinates": [10.782031726154818, 46.363642916644835]}, "properties": {}}, {"type": "Feature", "geometry": {"type": "Point", "coordinates": [11.206389093124898, 46.470063592548364]}, "properties": {}}, {"type": "Feature", "geometry": {"type": "Point", "coordinates": [10.801018906117719, 45.87258348981198]}, "properties": {}}, {"type": "Feature", "geometry": {"type": "Point", "coordinates": [10.855964004127662, 46.25025001514403]}, "properties": {}}, {"type": "Feature", "geometry": {"type": "Point", "coordinates": [11.342521617305595, 46.05105452009647]}, "properties": {}}, {"type": "Feature", "geometry": {"type": "Point", "coordinates": [10.870778774023474, 46.16097383872391]}, "properties": {}}, {"type": "Feature", "geometry": {"type": "Point", "coordinates": [11.664220096934509, 46.13189415507754]}, "properties": {}}, {"type": "Feature", "geometry": {"type": "Point", "coordinates": [11.629659987865194, 46.137424612820624]}, "properties": {}}, {"type": "Feature", "geometry": {"type": "Point", "coordinates": [10.95240545612953, 45.82051128979296]}, "properties": {}}, {"type": "Feature", "geometry": {"type": "Point", "coordinates": [10.539133289436982, 45.971864868042935]}, "properties": {}}, {"type": "Feature", "geometry": {"type": "Point", "coordinates": [10.631706752074743, 46.43591294419381]}, "properties": {}}, {"type": "Feature", "geometry": {"type": "Point", "coordinates": [10.520386709832655, 45.87796745002204]}, "properties": {}}, {"type": "Feature", "geometry": {"type": "Point", "coordinates": [10.620715234553497, 46.046839186527194]}, "properties": {}}, {"type": "Feature", "geometry": {"type": "Point", "coordinates": [11.617549777355773, 46.26356930710396]}, "properties": {}}, {"type": "Feature", "geometry": {"type": "Point", "coordinates": [11.208988712667267, 46.00723343042515]}, "properties": {}}, {"type": "Feature", "geometry": {"type": "Point", "coordinates": [11.587479560365797, 46.27951613669015]}, "properties": {}}, {"type": "Feature", "geometry": {"type": "Point", "coordinates": [11.380429846509005, 45.95267239331167]}, "properties": {}}, {"type": "Feature", "geometry": {"type": "Point", "coordinates": [10.673091760827772, 46.396860751120514]}, "properties": {}}, {"type": "Feature", "geometry": {"type": "Point", "coordinates": [11.004210729088102, 46.225348191497645]}, "properties": {}}, {"type": "Feature", "geometry": {"type": "Point", "coordinates": [11.057027152229749, 46.42312713856087]}, "properties": {}}, {"type": "Feature", "geometry": {"type": "Point", "coordinates": [11.306164238063877, 46.022555738468725]}, "properties": {}}, {"type": "Feature", "geometry": {"type": "Point", "coordinates": [11.744962150111403, 46.474025483023205]}, "properties": {}}, {"type": "Feature", "geometry": {"type": "Point", "coordinates": [11.803659524663628, 46.38117561120511]}, "properties": {}}, {"type": "Feature", "geometry": {"type": "Point", "coordinates": [11.044475212680434, 46.274654828385245]}, "properties": {}}, {"type": "Feature", "geometry": {"type": "Point", "coordinates": [11.819932312470964, 46.27532959862039]}, "properties": {}}, {"type": "Feature", "geometry": {"type": "Point", "coordinates": [11.501664898096685, 46.17664007896906]}, "properties": {}}, {"type": "Feature", "geometry": {"type": "Point", "coordinates": [10.746342655337093, 46.226456667622465]}, "properties": {}}, {"type": "Feature", "geometry": {"type": "Point", "coordinates": [11.077395134538623, 46.10041851106766]}, "properties": {}}, {"type": "Feature", "geometry": {"type": "Point", "coordinates": [10.660309735464732, 46.06914213019163]}, "properties": {}}, {"type": "Feature", "geometry": {"type": "Point", "coordinates": [11.553771975234893, 46.305448821614405]}, "properties": {}}, {"type": "Feature", "geometry": {"type": "Point", "coordinates": [10.99464969015918, 45.74376088007691]}, "properties": {}}, {"type": "Feature", "geometry": {"type": "Point", "coordinates": [10.856246842751302, 45.88611943393333]}, "properties": {}}, {"type": "Feature", "geometry": {"type": "Point", "coordinates": [10.594373164131575, 45.9427185025679]}, "properties": {}}, {"type": "Feature", "geometry": {"type": "Point", "coordinates": [10.581020448260123, 46.03831678298232]}, "properties": {}}, {"type": "Feature", "geometry": {"type": "Point", "coordinates": [10.85054341585633, 45.89857513801118]}, "properties": {}}, {"type": "Feature", "geometry": {"type": "Point", "coordinates": [10.910535446335999, 45.862393731177754]}, "properties": {}}, {"type": "Feature", "geometry": {"type": "Point", "coordinates": [11.669034658001452, 46.39454438772181]}, "properties": {}}, {"type": "Feature", "geometry": {"type": "Point", "coordinates": [10.828768871075473, 46.242877835619865]}, "properties": {}}, {"type": "Feature", "geometry": {"type": "Point", "coordinates": [11.777272372343985, 46.111571794587896]}, "properties": {}}, {"type": "Feature", "geometry": {"type": "Point", "coordinates": [11.198810138699884, 45.9837302477693]}, "properties": {}}, {"type": "Feature", "geometry": {"type": "Point", "coordinates": [11.57790008233602, 46.16421759224154]}, "properties": {}}, {"type": "Feature", "geometry": {"type": "Point", "coordinates": [10.838635003201533, 46.29583411160976]}, "properties": {}}, {"type": "Feature", "geometry": {"type": "Point", "coordinates": [10.765078720004704, 46.13882359642323]}, "properties": {}}, {"type": "Feature", "geometry": {"type": "Point", "coordinates": [11.545475049912582, 46.23762402414615]}, "properties": {}}, {"type": "Feature", "geometry": {"type": "Point", "coordinates": [11.02624604587423, 45.94524951477558]}, "properties": {}}, {"type": "Feature", "geometry": {"type": "Point", "coordinates": [10.580614515271296, 45.79618746153302]}, "properties": {}}, {"type": "Feature", "geometry": {"type": "Point", "coordinates": [11.002873519399142, 46.15085026188946]}, "properties": {}}, {"type": "Feature", "geometry": {"type": "Point", "coordinates": [11.530392442719272, 46.35245990108647]}, "properties": {}}, {"type": "Feature", "geometry": {"type": "Point", "coordinates": [10.685200962503158, 46.01087174364266]}, "properties": {}}, {"type": "Feature", "geometry": {"type": "Point", "coordinates": [11.541744364005018, 46.07703677291145]}, "properties": {}}, {"type": "Feature", "geometry": {"type": "Point", "coordinates": [11.16004021931565, 46.41952087117147]}, "properties": {}}, {"type": "Feature", "geometry": {"type": "Point", "coordinates": [11.229746855330983, 46.10188533762824]}, "properties": {}}, {"type": "Feature", "geometry": {"type": "Point", "coordinates": [11.672873410860912, 46.42085404308224]}, "properties": {}}, {"type": "Feature", "geometry": {"type": "Point", "coordinates": [11.067312604772528, 45.96715593848399]}, "properties": {}}]}