<?xml version='1.0' encoding='utf-8'?>
<kml xmlns="http://www.opengis.net/kml/2.2">
  <Document>
    <name>Mappa avvistamenti orsi Trentino 2026</name>
    <description>Mappa delle segnalazioni pervenute ai social e gruppi "no orsi". Autore: PERSON_0007. Per segnalazioni (solo whatsapp PHONE_0015) </description>
    <Style id="icon-1553-C2185B-normal">
      <IconStyle>
        <color>ff5b18c2</color>
        <scale>1</scale>
        <Icon>
          <href>https://www.gstatic.com/mapspro/images/stock/503-wht-blank_maps.png</href>
        </Icon>
      </IconStyle>
      <LabelStyle>
        <scale>0</scale>
      </LabelStyle>
    </Style>
    <Style id="icon-1553-C2185B-highlight">
      <IconStyle>
        <color>ff5b18c2</color>
        <scale>1</scale>
        <Icon>
          <href>https://www.gstatic.com/mapspro/images/stock/503-wht-blank_maps.png</href>
        </Icon>
      </IconStyle>
      <LabelStyle>
        <scale>1</scale>
      </LabelStyle>
    </Style>
    <StyleMap id="icon-1553-C2185B">
      <Pair>
        <key>normal</key>
        <styleUrl>#icon-1553-C2185B-normal</styleUrl>
      </Pair>
      <Pair>
        <key>highlight</key>
        <styleUrl>#icon-1553-C2185B-highlight</styleUrl>
      </Pair>
    </StyleMap>
    <Style id="icon-1594-424242-normal">
      <IconStyle>
        <color>ff424242</color>
        <scale>1</scale>
        <Icon>
          <href>https://www.gstatic.com/mapspro/images/stock/503-wht-blank_maps.png</href>
        </Icon>
      </IconStyle>
      <LabelStyle>
        <scale>0</scale>
      </LabelStyle>
    </Style>
    <Style id="icon-1594-424242-highlight">
      <IconStyle>
        <color>ff424242</color>
        <scale>1</scale>
        <Icon>
          <href>https://www.gstatic.com/mapspro/images/stock/503-wht-blank_maps.png</href>
        </Icon>
      </IconStyle>
      <LabelStyle>
        <scale>1</scale>
      </LabelStyle>
    </Style>
    <StyleMap id="icon-1594-424242">
      <Pair>
        <key>normal</key>
        <styleUrl>#icon-1594-424242-normal</styleUrl>
      </Pair>
      <Pair>
        <key>highlight</key>
        <styleUrl>#icon-1594-424242-highlight</styleUrl>
      </Pair>
    </StyleMap>
    <Style id="icon-1603-424242-normal">
      <IconStyle>
        <color>ff424242</color>
        <scale>1</scale>
        <Icon>
          <href>https://www.gstatic.com/mapspro/images/stock/503-wht-blank_maps.png</href>
        </Icon>
      </IconStyle>
      <LabelStyle>
        <scale>0</scale>
      </LabelStyle>
    </Style>
    <Style id="icon-1603-424242-highlight">
      <IconStyle>
        <color>ff424242</color>
        <scale>1</scale>
        <Icon>
          <href>https://www.gstatic.com/mapspro/images/stock/503-wht-blank_maps.png</href>
        </Icon>
      </IconStyle>
      <LabelStyle>
        <scale>1</scale>
      </LabelStyle>
    </Style>
    <StyleMap id="icon-1603-424242">
      <Pair>
        <key>normal</key>
        <styleUrl>#icon-1603-424242-normal</styleUrl>
      </Pair>
      <Pair>
        <key>highlight</key>
        <styleUrl>#icon-1603-424242-highlight</styleUrl>
      </Pair>
    </StyleMap>
    <Style id="icon-1603-4E342E-normal">
      <IconStyle>
        <color>ff2e344e</color>
        <scale>1</scale>
        <Icon>
          <href>https://www.gstatic.com/mapspro/images/stock/503-wht-blank_maps.png</href>
        </Icon>
      </IconStyle>
      <LabelStyle>
        <scale>0</scale>
      </LabelStyle>
    </Style>
    <Style id="icon-1603-4E342E-highlight">
      <IconStyle>
        <color>ff2e344e</color>
        <scale>1</scale>
        <Icon>
          <href>https://www.gstatic.com/mapspro/images/stock/503-wht-blank_maps.png</href>
        </Icon>
      </IconStyle>
      <LabelStyle>
        <scale>1</scale>
      </LabelStyle>
    </Style>
    <StyleMap id="icon-1603-4E342E">
      <Pair>
        <key>normal</key>
        <styleUrl>#icon-1603-4E342E-normal</styleUrl>
      </Pair>
      <Pair>
        <key>highlight</key>
        <styleUrl>#icon-1603-4E342E-highlight</styleUrl>
      </Pair>
    </StyleMap>
    <Style id="icon-1714-DB4436-normal">
      <IconStyle>
        <color>ff3644db</color>
        <scale>1</scale>
        <Icon>
          <href>https://www.gstatic.com/mapspro/images/stock/503-wht-blank_maps.png</href>
        </Icon>
      </IconStyle>
      <LabelStyle>
        <scale>0</scale>
      </LabelStyle>
    </Style>
    <Style id="icon-1714-DB4436-highlight">
      <IconStyle>
        <color>ff3644db</color>
        <scale>1</scale>
        <Icon>
          <href>https://www.gstatic.com/mapspro/images/stock/503-wht-blank_maps.png</href>
        </Icon>
      </IconStyle>
      <LabelStyle>
        <scale>1</scale>
      </LabelStyle>
    </Style>
    <StyleMap id="icon-1714-DB4436">
      <Pair>
        <key>normal</key>
        <styleUrl>#icon-1714-DB4436-normal</styleUrl>
      </Pair>
      <Pair>
        <key>highlight</key>
        <styleUrl>#icon-1714-DB4436-highlight</styleUrl>
      </Pair>
    </StyleMap>
    <Style id="icon-1727-097138-normal">
      <IconStyle>
        <color>ff387109</color>
        <scale>1</scale>
        <Icon>
          <href>https://www.gstatic.com/mapspro/images/stock/503-wht-blank_maps.png</href>
        </Icon>
      </IconStyle>
      <LabelStyle>
        <scale>0</scale>
      </LabelStyle>
    </Style>
    <Style id="icon-1727-097138-highlight">
      <IconStyle>
        <color>ff387109</color>
        <scale>1</scale>
        <Icon>
          <href>https://www.gstatic.com/mapspro/images/stock/503-wht-blank_maps.png</href>
        </Icon>
      </IconStyle>
      <LabelStyle>
        <scale>1</scale>
      </LabelStyle>
    </Style>
    <StyleMap id="icon-1727-097138">
      <Pair>
        <key>normal</key>
        <styleUrl>#icon-1727-097138-normal</styleUrl>
      </Pair>
      <Pair>
        <key>highlight</key>
        <styleUrl>#icon-1727-097138-highlight</styleUrl>
      </Pair>
    </StyleMap>
    <Style id="icon-1727-1A237E-normal">
      <IconStyle>
        <color>ff7e231a</color>
        <scale>1</scale>
        <Icon>
          <href>https://www.gstatic.com/mapspro/images/stock/503-wht-blank_maps.png</href>
        </Icon>
      </IconStyle>
      <LabelStyle>
        <scale>0</scale>
      </LabelStyle>
    </Style>
    <Style id="icon-1727-1A237E-highlight">
      <IconStyle>
        <color>ff7e231a</color>
        <scale>1</scale>
        <Icon>
          <href>https://www.gstatic.com/mapspro/images/stock/503-wht-blank_maps.png</href>
        </Icon>
      </IconStyle>
      <LabelStyle>
        <scale>1</scale>
      </LabelStyle>
    </Style>
    <StyleMap id="icon-1727-1A237E">
      <Pair>
        <key>normal</key>
        <styleUrl>#icon-1727-1A237E-normal</styleUrl>
      </Pair>
      <Pair>
        <key>highlight</key>
        <styleUrl>#icon-1727-1A237E-highlight</styleUrl>
      </Pair>
    </StyleMap>
    <Style id="icon-1727-E65100-normal">
      <IconStyle>
        <color>ff0051e6</color>
        <scale>1</scale>
        <Icon>
          <href>https://www.gstatic.com/mapspro/images/stock/503-wht-blank_maps.png</href>
        </Icon>
      </IconStyle>
      <LabelStyle>
        <scale>0</scale>
      </LabelStyle>
    </Style>
    <Style id="icon-1727-E65100-highlight">
      <IconStyle>
        <color>ff0051e6</color>
        <scale>1</scale>
        <Icon>
          <href>https://www.gstatic.com/mapspro/images/stock/503-wht-blank_maps.png</href>
        </Icon>
      </IconStyle>
      <LabelStyle>
        <scale>1</scale>
      </LabelStyle>
    </Style>
    <StyleMap id="icon-1727-E65100">
      <Pair>
        <key>normal</key>
        <styleUrl>#icon-1727-E65100-normal</styleUrl>
      </Pair>
      <Pair>
        <key>highlight</key>
        <styleUrl>#icon-1727-E65100-highlight</styleUrl>
      </Pair>
    </StyleMap>
    <Style id="icon-1748-795548-normal">
      <IconStyle>
        <color>ff485579</color>
        <scale>1</scale>
        <Icon>
          <href>https://www.gstatic.com/mapspro/images/stock/503-wht-blank_maps.png</href>
        </Icon>
      </IconStyle>
      <LabelStyle>
        <scale>0</scale>
      </LabelStyle>
    </Style>
    <Style id="icon-1748-795548-highlight">
      <IconStyle>
        <color>ff485579</color>
        <scale>1</scale>
        <Icon>
          <href>https://www.gstatic.com/mapspro/images/stock/503-wht-blank_maps.png</href>
        </Icon>
      </IconStyle>
      <LabelStyle>
        <scale>1</scale>
      </LabelStyle>
    </Style>
    <StyleMap id="icon-1748-795548">
      <Pair>
        <key>normal</key>
        <styleUrl>#icon-1748-795548-normal</styleUrl>
      </Pair>
      <Pair>
        <key>highlight</key>
        <styleUrl>#icon-1748-795548-highlight</styleUrl>
      </Pair>
    </StyleMap>
    <Style id="icon-1759-795548-normal">
      <IconStyle>
        <color>ff485579</color>
        <scale>1</scale>
        <Icon>
          <href>https://www.gstatic.com/mapspro/images/stock/503-wht-blank_maps.png</href>
        </Icon>
      </IconStyle>
      <LabelStyle>
        <scale>0</scale>
      </LabelStyle>
    </Style>
    <Style id="icon-1759-795548-highlight">
      <IconStyle>
        <color>ff485579</color>
        <scale>1</scale>
        <Icon>
          <href>https://www.gstatic.com/mapspro/images/stock/503-wht-blank_maps.png</href>
        </Icon>
      </IconStyle>
      <LabelStyle>
        <scale>1</scale>
      </LabelStyle>
    </Style>
    <StyleMap id="icon-1759-795548">
      <Pair>
        <key>normal</key>
        <styleUrl>#icon-1759-795548-normal</styleUrl>
      </Pair>
      <Pair>
        <key>highlight</key>
        <styleUrl>#icon-1759-795548-highlight</styleUrl>
      </Pair>
    </StyleMap>
    <Style id="icon-1899-DB4436-normal">
      <IconStyle>
        <color>ff3644db</color>
        <scale>1</scale>
        <Icon>
          <href>https://www.gstatic.com/mapspro/images/stock/503-wht-blank_maps.png</href>
        </Icon>
        <hotSpot x="32" xunits="pixels" y="64" yunits="insetPixels" />
      </IconStyle>
      <LabelStyle>
        <scale>0</scale>
      </LabelStyle>
    </Style>
    <Style id="icon-1899-DB4436-highlight">
      <IconStyle>
        <color>ff3644db</color>
        <scale>1</scale>
        <Icon>
          <href>https://www.gstatic.com/mapspro/images/stock/503-wht-blank_maps.png</href>
        </Icon>
        <hotSpot x="32" xunits="pixels" y="64" yunits="insetPixels" />
      </IconStyle>
      <LabelStyle>
        <scale>1</scale>
      </LabelStyle>
    </Style>
    <StyleMap id="icon-1899-DB4436">
      <Pair>
        <key>normal</key>
        <styleUrl>#icon-1899-DB4436-normal</styleUrl>
      </Pair>
      <Pair>
        <key>highlight</key>
        <styleUrl>#icon-1899-DB4436-highlight</styleUrl>
      </Pair>
    </StyleMap>
    <Folder>
      <name>Presso le case</name>
      <Placemark>
        <name>Vallene</name>
        <description>&lt;img src="https://mymaps.usercontent.google.com/hostedimage/m/*/3AAjQbR47h_hifLLyAg_pp-8rUIZ7sB5_dqJjEsLm-WMR1e7WwdhwQHx5CW_8VOQJVc64iYIbCf8dUgEit_1UOL08Klh2rv6OK7KLfwInzOe-lxffD0MVrdOtCsPe8eceWUIhSz0qh3Q-Pi_wm4ViMaQOjZj7tSo-JuQ4l-E1wqaH5cfziNoJP3MGYEmGkqeXraCskjiP0Iob3VuJB2yLIbWBep0SQnCHcW2Czls1NiG_PqEI-ZZdvDtAt47oieE?fife=s16383" height="200" width="auto" /&gt;&lt;br&gt;&lt;br&gt;1/06/2026 - Vallene di Terlago (Vallelaghi),  giugno: un orso è fotografato mentre cammina a fianco di un’abitazione prossima al bosco</description>
        <styleUrl>#icon-1603-4E342E</styleUrl>
        <ExtendedData>
          <Data name="gx_media_links">
            <value>https://mymaps.usercontent.google.com/hostedimage/m/*/3AAjQbR47h_hifLLyAg_pp-8rUIZ7sB5_dqJjEsLm-WMR1e7WwdhwQHx5CW_8VOQJVc64iYIbCf8dUgEit_1UOL08Klh2rv6OK7KLfwInzOe-lxffD0MVrdOtCsPe8eceWUIhSz0qh3Q-Pi_wm4ViMaQOjZj7tSo-JuQ4l-E1wqaH5cfziNoJP3MGYEmGkqeXraCskjiP0Iob3VuJB2yLIbWBep0SQnCHcW2Czls1NiG_PqEI-ZZdvDtAt47oieE?fife=s16383</value>
          </Data>
        </ExtendedData>
        <Point>
          <coordinates>
            11.0475222,46.1087088,0
          </coordinates>
        </Point>
      </Placemark>
      <Placemark>
        <name>Cadine</name>
        <description>&lt;img src="https://mymaps.usercontent.google.com/hostedimage/m/*/3AAjQbR7IPIAAc0MCGCZ_jZgdjoDbWVCZa79CWG99rO8MjnHFuv4M4uBJJjMRhhBbWj2r7IuFcOe6o-FwgfYmw3rgVPkZmu0HqJX00mtNf5c5xIU0CsfJG3N2HcpIDyo5O3dFIzPoKNpapmd7Dh93PUdqqs75Xhezc0RC_KTvn4zG7IroehcqGZA67fC1-i6eubX_xOvo7mXiknS2JIoXbX3AwsM9URShnDn--R_c4d6gQZK51sARJ3vM79osp4A?fife=s16383" height="200" width="auto" /&gt;&lt;br&gt;&lt;br&gt;27/05/2026 - Una donna, PERSON_0001, ai bordi del paese riprende un orso nell'orto sottostante casa sua. La forestale, solo dopo che il video è finito sui social e dai social è rimbalzato sui quotidiani trentini comunica ufficialmente (ma erano passate due settimane) che l'orso era apparso nello stesso posto anche il 30/05/2026. Ma se è problematico cosa hanno fatto?</description>
        <styleUrl>#icon-1603-424242</styleUrl>
        <ExtendedData>
          <Data name="gx_media_links">
            <value>https://mymaps.usercontent.google.com/hostedimage/m/*/3AAjQbR7IPIAAc0MCGCZ_jZgdjoDbWVCZa79CWG99rO8MjnHFuv4M4uBJJjMRhhBbWj2r7IuFcOe6o-FwgfYmw3rgVPkZmu0HqJX00mtNf5c5xIU0CsfJG3N2HcpIDyo5O3dFIzPoKNpapmd7Dh93PUdqqs75Xhezc0RC_KTvn4zG7IroehcqGZA67fC1-i6eubX_xOvo7mXiknS2JIoXbX3AwsM9URShnDn--R_c4d6gQZK51sARJ3vM79osp4A?fife=s16383</value>
          </Data>
        </ExtendedData>
        <Point>
          <coordinates>
            11.0661725,46.0864405,0
          </coordinates>
        </Point>
      </Placemark>
    </Folder>
    <Folder>
      <name>Incontri ravvicinati e falsi attacchi</name>
      <Placemark>
        <name>Camponzin</name>
        <description>09/07/2026. Sopramonte di Trento. Alle 11.00  un ragazzino di 14 anni che si allenava correndo ha avuto un incontro ravvicinato con un orso. Il ragazzo, che proveniva da Sopramonte lungo la strada provinciale 85, si imbatteva nel plantigrado poco dopo aver imboccato la strada forestale per il Maso Camponzin (Fattoria didattica con campi estivi per bambini). L'orso, nell'attraversare la strada ha scorto il ragazzo e si è fermato. Dopo averlo fissato ha proseguito. Il ragazzo è rimasto scosso e ha chiamato la madre che è arrivata sul posto. </description>
        <styleUrl>#icon-1759-795548</styleUrl>
        <Point>
          <coordinates>
            11.0811956,46.0712809,0
          </coordinates>
        </Point>
      </Placemark>
      <Placemark>
        <name>Predonico</name>
        <description>17/07/2026. Padre e figlio notano a breve distanza un cucciolo sul sentiero. Temendo la presenza dell'orsa chiamano i soccorsi.</description>
        <styleUrl>#icon-1759-795548</styleUrl>
        <Point>
          <coordinates>
            11.2235303,46.446269,0
          </coordinates>
        </Point>
      </Placemark>
      <Placemark>
        <name>Arca di Fraporte </name>
        <description>Stenico (26/06/2026). Un escursionista attaccato su un sentiero da un'orsa con i cuccioli. La carica si è arrestata a poca distanza dall'uomo che è rientrato autonomamente</description>
        <styleUrl>#icon-1759-795548</styleUrl>
        <Point>
          <coordinates>
            10.848516,46.0722796,0
          </coordinates>
        </Point>
      </Placemark>
      <Placemark>
        <name>Fontana Filia</name>
        <description>17/05/2026 - Un'impiegata della PAT di 30 anni che correva tra Cadine e Terlago su un sentiero chiama i soccorsi in stato di grande agitazione in zona Fontana Filia. Il comandante dei vigili del fuoco, arrivato sul posto, successivamente intervistato riferisce che la donna soccorsa era molto scossa essendo stata seguita da un orso. La trentenne, che non rivela il nome, poi riferisce di essere stata calma, di essersi allontanata come da protocolli e di non essere stata seguita. La PAT ufficializza la versione "tranquillizzante". Caso eloquente. </description>
        <styleUrl>#icon-1759-795548</styleUrl>
        <Point>
          <coordinates>
            11.063631,46.098884,0
          </coordinates>
        </Point>
      </Placemark>
      <Placemark>
        <name>San Lorenzo Dorsino</name>
        <description>21/06/2026 - "Falso attacco" finito a un metro di distanza da due malcapitati escursionisti locali che percorrevano la forestale del Bael tra Ranzo e Nembia (a circa 3 km da Ranzo). La PAT ha cercato di sminuire la portata dell'accaduto parlando id un "avvertimento" da parte di un'orsa con tre cuccioli</description>
        <styleUrl>#icon-1759-795548</styleUrl>
        <Point>
          <coordinates>
            10.934807,46.074808,0
          </coordinates>
        </Point>
      </Placemark>
      <Placemark>
        <name>PERSON_0002 2</name>
        <description>PHONE_0001:30 PERSON_0002 loc. Norge ragazza con il cane vede un orso a breve distanza, si mette a gridare e chiama il 112</description>
        <styleUrl>#icon-1759-795548</styleUrl>
        <Point>
          <coordinates>
            11.0683927,46.0454646,0
          </coordinates>
        </Point>
      </Placemark>
    </Folder>
    <Folder>
      <name>Incidenti stradali</name>
      <Placemark>
        <name>Vecchio Mulino</name>
        <description>31/07/2026. Nella mattinata a Vezzano (Vallelaghi) sulla SS 45 , all'altezza del Vecchio Mulino, un orso ha urtato un auto in transito. E' però fuggito verso la vegetazione</description>
        <styleUrl>#icon-1748-795548</styleUrl>
        <Point>
          <coordinates>
            11.0195311,46.0764608,0
          </coordinates>
        </Point>
      </Placemark>
      <Placemark>
        <name>VERMIGLIO</name>
        <description>26/05/2026 - Scontro con un orso con gravi danni alla vettura. Mattina.</description>
        <styleUrl>#icon-1748-795548</styleUrl>
        <Point>
          <coordinates>
            10.71553,46.303621,0
          </coordinates>
        </Point>
      </Placemark>
    </Folder>
    <Folder>
      <name>Predazioni</name>
      <Placemark>
        <name>Malga Flavona</name>
        <description>27/07/2026. Comune di Ville d'Anaunia. Carcassa di un cavallo semiconsumata avvistata da escursionisti.</description>
        <styleUrl>#icon-1553-C2185B</styleUrl>
        <Point>
          <coordinates>
            10.9302963,46.2261203,0
          </coordinates>
        </Point>
      </Placemark>
      <Placemark>
        <name>Sporminore</name>
        <description>&lt;img src="https://mymaps.usercontent.google.com/hostedimage/m/*/3AAjQbR7LbXg4-vQd43lzT97AfDYz2eU3Yu4AGTqgJHPugKBHOH0ml35BA4QyHSQFADxoKDQR2JCAzk36Hl3iNTGJExPcS2e-pp-g0MGf5CwDMPwCAwsFZK3LJPj8sCkwS37XCdPjHiwDdcC7-acWSOtV_v17oippVFJ_qek_a6Wtfl9YlmeAJ_DiSoqxia1qCpuoDtcHX9CggQJgKs2oyTrLLiNTl6mKJkqXEZQ0ZIPgPqooEQSyVoWB5EqCb-E?fife=s16383" height="200" width="auto" /&gt;&lt;br&gt;&lt;br&gt;31/07/2026. A Sporminore una capra uccisa dall'orso nonostante recinzioni a cani da protezione</description>
        <styleUrl>#icon-1553-C2185B</styleUrl>
        <ExtendedData>
          <Data name="gx_media_links">
            <value>https://mymaps.usercontent.google.com/hostedimage/m/*/3AAjQbR7LbXg4-vQd43lzT97AfDYz2eU3Yu4AGTqgJHPugKBHOH0ml35BA4QyHSQFADxoKDQR2JCAzk36Hl3iNTGJExPcS2e-pp-g0MGf5CwDMPwCAwsFZK3LJPj8sCkwS37XCdPjHiwDdcC7-acWSOtV_v17oippVFJ_qek_a6Wtfl9YlmeAJ_DiSoqxia1qCpuoDtcHX9CggQJgKs2oyTrLLiNTl6mKJkqXEZQ0ZIPgPqooEQSyVoWB5EqCb-E?fife=s16383</value>
          </Data>
        </ExtendedData>
        <Point>
          <coordinates>
            11.0280627,46.2279821,0
          </coordinates>
        </Point>
      </Placemark>
      <Placemark>
        <name>Malga Cengledino</name>
        <description>18/07/2026. Predazione di una vacca gravida sopra Malga Cengledino (molto frequentata dai turisti). </description>
        <styleUrl>#icon-1553-C2185B</styleUrl>
        <Point>
          <coordinates>
            10.6756878,46.0461084,0
          </coordinates>
        </Point>
      </Placemark>
      <Placemark>
        <name>Malga Guì</name>
        <description>16/07/2026. A Malga Guì, in val Concei (comune di Ledro) una vacca gravida è stata predata dall'orso. La carcssa recuperata con un elicottero. Un altro capo risulta disperso</description>
        <styleUrl>#icon-1553-C2185B</styleUrl>
        <Point>
          <coordinates>
            10.7415001,45.9605398,0
          </coordinates>
        </Point>
      </Placemark>
      <Placemark>
        <name>Malga Zoccol</name>
        <description>&lt;img src="https://mymaps.usercontent.google.com/hostedimage/m/*/3AAjQbR4mAdj4WWgZbC8F6LUpmmR-32UMzvsIcOFIsXm_j5_hKERxNrJECkzdnGiv_JUmfUgsJicMOsWRFk87DihoQy16MP_LIxsh3twNHdaApmk2j5_q5iEbNOGel1c3oXSqH9EF0oWlGakUVoVl5uKhQ7jmVd2gHfzhFQNYdLWWFdp9VTXC4r7TIcQSkhgz6vhb7B9fJ3txcpNf2NLunYg7u95FfrxaTgSQIlyVGpHNSs0iM3Hq5AJIU3Hjgdg?fife=s16383" height="200" width="auto" /&gt;&lt;br&gt;&lt;br&gt;27/07/2026. Alla Malga Zoccol in comune di Rabbi due asini gravemente feriti nella notte hanno dovuto essere successivamente soppressi</description>
        <styleUrl>#icon-1553-C2185B</styleUrl>
        <ExtendedData>
          <Data name="gx_media_links">
            <value>https://mymaps.usercontent.google.com/hostedimage/m/*/3AAjQbR4mAdj4WWgZbC8F6LUpmmR-32UMzvsIcOFIsXm_j5_hKERxNrJECkzdnGiv_JUmfUgsJicMOsWRFk87DihoQy16MP_LIxsh3twNHdaApmk2j5_q5iEbNOGel1c3oXSqH9EF0oWlGakUVoVl5uKhQ7jmVd2gHfzhFQNYdLWWFdp9VTXC4r7TIcQSkhgz6vhb7B9fJ3txcpNf2NLunYg7u95FfrxaTgSQIlyVGpHNSs0iM3Hq5AJIU3Hjgdg?fife=s16383</value>
          </Data>
        </ExtendedData>
        <Point>
          <coordinates>
            10.8666646,46.4032129,0
          </coordinates>
        </Point>
      </Placemark>
      <Placemark>
        <name>Malga Val Comasine</name>
        <description>&lt;img src="https://mymaps.usercontent.google.com/hostedimage/m/*/3AAjQbR65bcGhgNOrORWsPvWVqWktF1q1c_-Vg9e0UWMst0zNOWcQdj-27QYkdHtbksKxsm7KW17Y0INi_NwDtbteCUJNzuppEdh4Wg5zenn4OIuLjeeMZI4nnClqQcxMDiaqq6gKn5b0Lg6pdkdlnG_1-LjlBwBK_GdW5GRePRcwx0qhHQ4d5Cud00yNW17Ki_VnuQ4qDjxeRp2xBQM73dRwiTQSlbszfZ2x55sAIy_IPZsY7MlBlHv4z2-79AU?fife=s16383" height="200" width="auto" /&gt;&lt;br&gt;&lt;br&gt;07/07/2026- Predazione di cinque bovini. A seguito di questo grave episodio la forestale ha piazzato una trappola a tubo per radiocollarare il l'orso che aveva precedentemente attaccato alla Malga Saviana di Vermiglio</description>
        <styleUrl>#icon-1553-C2185B</styleUrl>
        <ExtendedData>
          <Data name="gx_media_links">
            <value>https://mymaps.usercontent.google.com/hostedimage/m/*/3AAjQbR65bcGhgNOrORWsPvWVqWktF1q1c_-Vg9e0UWMst0zNOWcQdj-27QYkdHtbksKxsm7KW17Y0INi_NwDtbteCUJNzuppEdh4Wg5zenn4OIuLjeeMZI4nnClqQcxMDiaqq6gKn5b0Lg6pdkdlnG_1-LjlBwBK_GdW5GRePRcwx0qhHQ4d5Cud00yNW17Ki_VnuQ4qDjxeRp2xBQM73dRwiTQSlbszfZ2x55sAIy_IPZsY7MlBlHv4z2-79AU?fife=s16383</value>
          </Data>
        </ExtendedData>
        <Point>
          <coordinates>
            10.6672115,46.3353309,0
          </coordinates>
        </Point>
      </Placemark>
      <Placemark>
        <name>Val Saviana</name>
        <description>&lt;img src="https://mymaps.usercontent.google.com/hostedimage/m/*/3AAjQbR69GjzSDCIwY-E_8VWf76gRoaHG1L_qsoFXPc6AelFXKIIRZsYWr40y6m18A55besEZMZczyihSI5BS5mghuEBjuYKmPxuLg4hkPpaYxgR5xk0tEctzdgtLYT9qqIr68w_x7PFwdB16F0tScER-32NJSS1FtY5hE7YhNdbh2NU_eeUoXM0FP5uxHedV7kqXyxL_PE09bhDysOqHZ6qfQdsr1T39NssqOp2hw1WsbVDgMV-j_RIsKj7uOYE?fife=s16383" height="200" width="auto" /&gt;&lt;br&gt;&lt;br&gt;Azienda di bovini da latte Sablum sui pascoli della Val Saviana. Tre vitelle predate da orso nella notte del 26/06/2o26</description>
        <styleUrl>#icon-1553-C2185B</styleUrl>
        <ExtendedData>
          <Data name="gx_media_links">
            <value>https://mymaps.usercontent.google.com/hostedimage/m/*/3AAjQbR69GjzSDCIwY-E_8VWf76gRoaHG1L_qsoFXPc6AelFXKIIRZsYWr40y6m18A55besEZMZczyihSI5BS5mghuEBjuYKmPxuLg4hkPpaYxgR5xk0tEctzdgtLYT9qqIr68w_x7PFwdB16F0tScER-32NJSS1FtY5hE7YhNdbh2NU_eeUoXM0FP5uxHedV7kqXyxL_PE09bhDysOqHZ6qfQdsr1T39NssqOp2hw1WsbVDgMV-j_RIsKj7uOYE?fife=s16383</value>
          </Data>
        </ExtendedData>
        <Point>
          <coordinates>
            10.6668231,46.3081291,0
          </coordinates>
        </Point>
      </Placemark>
      <Placemark>
        <name>Malga Valpiana</name>
        <description>01/07/2026 - Comune di Ossana. Predazione su bovini. </description>
        <styleUrl>#icon-1553-C2185B</styleUrl>
        <Point>
          <coordinates>
            10.7428253,46.2897275,0
          </coordinates>
        </Point>
      </Placemark>
      <Placemark>
        <name>Malga Bolentina</name>
        <description>24/07/2026. Malga Bolentina, comune di Malè. Attaccate 4 bovine.</description>
        <styleUrl>#icon-1553-C2185B</styleUrl>
        <Point>
          <coordinates>
            10.8708619,46.354783,0
          </coordinates>
        </Point>
      </Placemark>
      <Placemark>
        <name>Malga Lincino</name>
        <description>12/07/2026. Notte. Devastazione di decine di famiglie di api</description>
        <styleUrl>#icon-1553-C2185B</styleUrl>
        <Point>
          <coordinates>
            10.4867687,46.0842619,0
          </coordinates>
        </Point>
      </Placemark>
      <Placemark>
        <name>Malga Brandalors</name>
        <description>02/08/2026. Malga Brandalors in comune di Giustino. Una vitella sbranata dall'orso</description>
        <styleUrl>#icon-1553-C2185B</styleUrl>
        <Point>
          <coordinates>
            10.8056657,46.1583974,0
          </coordinates>
        </Point>
      </Placemark>
      <Placemark>
        <name>Fresine</name>
        <description>01/09/2026. Sera. Sulla SP 6 un automobilista filma un orso culla strada</description>
        <styleUrl>#icon-1727-E65100</styleUrl>
        <Point>
          <coordinates>
            10.4003571,46.0727199,0
          </coordinates>
        </Point>
      </Placemark>
      <Placemark>
        <name>Sonico</name>
        <description>01/09/2026. Ore serali. Orso avvistato dalla passerella che porta a Rino</description>
        <styleUrl>#icon-1727-E65100</styleUrl>
        <Point>
          <coordinates>
            10.3576943,46.1539452,0
          </coordinates>
        </Point>
      </Placemark>
      <Placemark>
        <name>PERSON_0003</name>
        <description>15/04/2025. In comune di Cedegolo, in località montana PERSON_0003 predate tre pecore. Fototrappolato un orso nella stessa zona.</description>
        <styleUrl>#icon-1553-C2185B</styleUrl>
        <Point>
          <coordinates>
            10.3714229,46.0584547,0
          </coordinates>
        </Point>
      </Placemark>
    </Folder>
    <Folder>
      <name>Avvistamento a distanza</name>
      <Placemark>
        <name>Lasino</name>
        <description>PHONE_0002:00 Nella via principale</description>
        <styleUrl>#icon-1727-E65100</styleUrl>
        <Point>
          <coordinates>
            10.9839649,46.0252868,0
          </coordinates>
        </Point>
      </Placemark>
      <Placemark>
        <name>Lago Terlago</name>
        <description>20/08/2026 Notte. Orso tenta di superare la recinzione di una proprietà. Avvisata la forestale.</description>
        <styleUrl>#icon-1727-E65100</styleUrl>
        <Point>
          <coordinates>
            11.0577837,46.1047656,0
          </coordinates>
        </Point>
      </Placemark>
      <Placemark>
        <name>PERSON_0004</name>
        <description>PHONE_0003:30 Avvistamento davanti al Ristorante Cacciatori</description>
        <styleUrl>#icon-1727-E65100</styleUrl>
        <Point>
          <coordinates>
            10.8517915,45.6892064,0
          </coordinates>
        </Point>
      </Placemark>
      <Placemark>
        <name>Sardagna</name>
        <description>&lt;img src="https://mymaps.usercontent.google.com/hostedimage/m/*/3AAjQbR6vCcKNHbYIvAIQ-DjOk59cSsCI53SMFTNtM5_0rvTfw65vZ-u40X97nKyqpa8d0Wl9W847RLbYPmTywD9W21axHCK68MWF7ywOvZEq6eZ4x6bnCOPHWGToCvDabH_lAMS3VQeOxPcA6BlkXVavXMlC68IPZ1-LWRcQ-jN0oaCPddYJggvnvq0NhJswqrPZavr3HqYWNui3bVIblMJizwpvhszeCr66Fo48HfaPquOEhPCTj7te2qMzPNs?fife=s16383" height="200" width="auto" /&gt;&lt;br&gt;&lt;br&gt;PHONE_0004:40 Orso avvistato al limite del paese</description>
        <styleUrl>#icon-1727-E65100</styleUrl>
        <ExtendedData>
          <Data name="gx_media_links">
            <value>https://mymaps.usercontent.google.com/hostedimage/m/*/3AAjQbR6vCcKNHbYIvAIQ-DjOk59cSsCI53SMFTNtM5_0rvTfw65vZ-u40X97nKyqpa8d0Wl9W847RLbYPmTywD9W21axHCK68MWF7ywOvZEq6eZ4x6bnCOPHWGToCvDabH_lAMS3VQeOxPcA6BlkXVavXMlC68IPZ1-LWRcQ-jN0oaCPddYJggvnvq0NhJswqrPZavr3HqYWNui3bVIblMJizwpvhszeCr66Fo48HfaPquOEhPCTj7te2qMzPNs?fife=s16383</value>
          </Data>
        </ExtendedData>
        <Point>
          <coordinates>
            11.0965786,46.061916,0
          </coordinates>
        </Point>
      </Placemark>
      <Placemark>
        <name>Lagolo 2</name>
        <description>PHONE_0005:00 all'ingresso del paese, sul ciglio sinistra della strada salendo</description>
        <styleUrl>#icon-1727-E65100</styleUrl>
        <Point>
          <coordinates>
            11.0016,46.0339301,0
          </coordinates>
        </Point>
      </Placemark>
      <Placemark>
        <name>Norge2</name>
        <description>PHONE_0006:00 donna con due cani vede l'orso che si accorge di lei e si alza in piedi. Prende il cane anziano in braccio e ripara in casa (a 50 m). L'orso non l'ha seguita</description>
        <styleUrl>#icon-1727-E65100</styleUrl>
        <Point>
          <coordinates>
            11.0656484,46.047181,0
          </coordinates>
        </Point>
      </Placemark>
      <Placemark>
        <name>Pista Topolino</name>
        <description>PHONE_0007:45 Sulla pista Topolino. Avvistato da un operatore degli impianti mentre si dirigeva verso alcuni colleghi. La forestale subito interpellata ha dato indicazione di rifugiarsi nei mezzi.</description>
        <styleUrl>#icon-1727-E65100</styleUrl>
        <Point>
          <coordinates>
            11.0695646,46.0438867,0
          </coordinates>
        </Point>
      </Placemark>
      <Placemark>
        <name>Lagolo</name>
        <description>PHONE_0008, cucciolone</description>
        <styleUrl>#icon-1727-E65100</styleUrl>
        <Point>
          <coordinates>
            10.9961411,46.0302938,0
          </coordinates>
        </Point>
      </Placemark>
      <Placemark>
        <name>Vaneze 3</name>
        <description>13/08/2026. Un grosso orso avvistato tra fine pista tre-tre e Hotel Europa alle 18:30</description>
        <styleUrl>#icon-1727-E65100</styleUrl>
        <Point>
          <coordinates>
            11.0712447,46.0511029,0
          </coordinates>
        </Point>
      </Placemark>
      <Placemark>
        <name>PERSON_0002</name>
        <description>&lt;a href="https://www.youtube.com/watch?v=7DHQY42YsRU"&gt;&lt;img src="https://img.youtube.com/vi/7DHQY42YsRU/hqdefault.jpg" height="200" width="auto" /&gt;&lt;/a&gt;&lt;br&gt;&lt;br&gt;&lt;a href="https://www.youtube.com/embed/7DHQY42YsRU"&gt;https://www.youtube.com/embed/7DHQY42YsRU&lt;/a&gt;&lt;br&gt;&lt;br&gt;PHONE_0009:20, pista cordela /snow park del Monte Bondone (loc. Norge)</description>
        <styleUrl>#icon-1727-E65100</styleUrl>
        <ExtendedData>
          <Data name="gx_media_links">
            <value>https://www.youtube.com/embed/7DHQY42YsRU</value>
          </Data>
        </ExtendedData>
        <Point>
          <coordinates>
            11.0674449,46.04624,0
          </coordinates>
        </Point>
      </Placemark>
      <Placemark>
        <name>Tre-Tre</name>
        <description>12/08/2026 ore 15:30 A monte arrivo seggiovia Tre-Tre.  </description>
        <styleUrl>#icon-1727-E65100</styleUrl>
        <Point>
          <coordinates>
            11.0692168,46.0399632,0
          </coordinates>
        </Point>
      </Placemark>
      <Placemark>
        <name>Lavaman</name>
        <description>&lt;a href="https://www.youtube.com/watch?v=5_p00tIin3s"&gt;&lt;img src="https://img.youtube.com/vi/5_p00tIin3s/hqdefault.jpg" height="200" width="auto" /&gt;&lt;/a&gt;&lt;br&gt;&lt;br&gt;&lt;a href="https://www.youtube.com/embed/5_p00tIin3s"&gt;https://www.youtube.com/embed/5_p00tIin3s&lt;/a&gt;&lt;br&gt;&lt;br&gt;12/08/2026, 16:00, orso attraversa di corsa la pista Lavaman</description>
        <styleUrl>#icon-1727-E65100</styleUrl>
        <ExtendedData>
          <Data name="gx_media_links">
            <value>https://www.youtube.com/embed/5_p00tIin3s</value>
          </Data>
        </ExtendedData>
        <Point>
          <coordinates>
            11.0682192,46.0410598,0
          </coordinates>
        </Point>
      </Placemark>
      <Placemark>
        <name>Montesel</name>
        <description>09/08/2026. 06:30 Orso avvistato all'arrivo della seggiovia  Montesel</description>
        <styleUrl>#icon-1727-E65100</styleUrl>
        <Point>
          <coordinates>
            11.0659031,46.0387174,0
          </coordinates>
        </Point>
      </Placemark>
      <Placemark>
        <name>Malga Kraun</name>
        <description>05/08/2026. Mezzocorona. Avvistato orso su sentiero per Malga Kraun</description>
        <styleUrl>#icon-1727-E65100</styleUrl>
        <Point>
          <coordinates>
            11.1388763,46.2457224,0
          </coordinates>
        </Point>
      </Placemark>
      <Placemark>
        <name>Lavaman3</name>
        <description>12/08/2026, 20:00 pista Lavaman del Monte Bondone</description>
        <styleUrl>#icon-1727-E65100</styleUrl>
        <Point>
          <coordinates>
            11.0679382,46.0414527,0
          </coordinates>
        </Point>
      </Placemark>
      <Placemark>
        <name>Proves</name>
        <description>&lt;img src="https://mymaps.usercontent.google.com/hostedimage/m/*/3AAjQbR7mht_hWywHvMrvBdyrtAaPXo-lRtZIDjFuUAFx5yt-W9QrhaS_6pJyGjYRAoIoWZNXE5Xv-EZsNkVNb9W-7iLlz8EeJhn9A_3ZTPlvcw6wYVwix9hhJWyiM-Yg_HUXSu_o46USucBQincUgFFoXGc8rHT-KuESkfBBYmw7AN8cpCNE2wAffT5sklPIJjJoZso-rv5BsnYtpHOmr8WR5nbGP8pWWsnin_xoP9AbFh4c3jD6wC-mJhqIrWQ?fife=s16383" height="200" width="auto" /&gt;&lt;br&gt;&lt;br&gt;08/04/2026. Loc. Matzlaun. Orso ripreso al mattino da operai </description>
        <styleUrl>#icon-1727-E65100</styleUrl>
        <ExtendedData>
          <Data name="gx_media_links">
            <value>https://mymaps.usercontent.google.com/hostedimage/m/*/3AAjQbR7mht_hWywHvMrvBdyrtAaPXo-lRtZIDjFuUAFx5yt-W9QrhaS_6pJyGjYRAoIoWZNXE5Xv-EZsNkVNb9W-7iLlz8EeJhn9A_3ZTPlvcw6wYVwix9hhJWyiM-Yg_HUXSu_o46USucBQincUgFFoXGc8rHT-KuESkfBBYmw7AN8cpCNE2wAffT5sklPIJjJoZso-rv5BsnYtpHOmr8WR5nbGP8pWWsnin_xoP9AbFh4c3jD6wC-mJhqIrWQ?fife=s16383</value>
          </Data>
        </ExtendedData>
        <Point>
          <coordinates>
            11.0315438,46.4866673,0
          </coordinates>
        </Point>
      </Placemark>
      <Placemark>
        <name>Tret</name>
        <description>28/07/2026. Orso avvistato da molti turisti sopra il parcheggio presso Hotel Scoiattolo</description>
        <styleUrl>#icon-1727-E65100</styleUrl>
        <Point>
          <coordinates>
            11.148847,46.4824354,0
          </coordinates>
        </Point>
      </Placemark>
      <Placemark>
        <name>Strada Brigolina</name>
        <description>03/08/2026. Orso adulto sulla strada di Malga Brigolina, incrocio per Lavè. ore 19:00</description>
        <styleUrl>#icon-1727-E65100</styleUrl>
        <Point>
          <coordinates>
            11.0476531,46.0515106,0
          </coordinates>
        </Point>
      </Placemark>
      <Placemark>
        <name>Norge</name>
        <description>17/07/2026. alle 7:00 un cucciolotto ha attraversato la provinciale 85 in loc. Norge (poco a monte dell'Hotel Norge). Proveniva dal bosco. Evidentemente la madre era nella vicinanze</description>
        <styleUrl>#icon-1727-E65100</styleUrl>
        <Point>
          <coordinates>
            11.0647757,46.0483658,0
          </coordinates>
        </Point>
      </Placemark>
      <Placemark>
        <name>Campo Carlo Magno</name>
        <description>(06/07/2026) . Verso le 13, una giovane turista con seconda casa si imbatte in una femmina con tre cuccioli a poca distanza. Resta impietrita dalla paura e l'orsa se ne va.</description>
        <styleUrl>#icon-1727-E65100</styleUrl>
        <Point>
          <coordinates>
            10.8428387,46.2392917,0
          </coordinates>
        </Point>
      </Placemark>
      <Placemark>
        <name>Monte di Mezzocorona</name>
        <description>12/07/2026. Un ragazzo in MTB, che saliva da Monte di Mezzocorona alla malga Kraun si è imbattuto in un orso a circa 2 km di distanza da Monte. Spaventato tornava indietro e allertava l'albrergo Ai Spiazzi Mountain Living Lodge</description>
        <styleUrl>#icon-1727-E65100</styleUrl>
        <Point>
          <coordinates>
            11.1291613,46.2347174,0
          </coordinates>
        </Point>
      </Placemark>
      <Placemark>
        <name>Tuenno</name>
        <description>&lt;a href="https://www.youtube.com/watch?v=emlZoHNTucE"&gt;&lt;img src="https://img.youtube.com/vi/emlZoHNTucE/hqdefault.jpg" height="200" width="auto" /&gt;&lt;/a&gt;&lt;br&gt;&lt;br&gt;&lt;a href="https://www.youtube.com/embed/emlZoHNTucE"&gt;https://www.youtube.com/embed/emlZoHNTucE&lt;/a&gt;&lt;br&gt;&lt;br&gt;10/07/2026. Ai bordi di una strada forestale. Ripreso da un auto. Dal fermo immagine si nota come l'orso ha guardato in direzione dell'automobilista. Per vedere bene il video aprire YOU TUBE!</description>
        <styleUrl>#icon-1727-E65100</styleUrl>
        <ExtendedData>
          <Data name="gx_media_links">
            <value>https://www.youtube.com/embed/emlZoHNTucE</value>
          </Data>
        </ExtendedData>
        <Point>
          <coordinates>
            10.9833857,46.3307439,0
          </coordinates>
        </Point>
      </Placemark>
      <Placemark>
        <name>Lago di Cei?</name>
        <description>&lt;img src="https://mymaps.usercontent.google.com/hostedimage/m/*/3AAjQbR5ih3NO9HDWmODVjS-vHInfOw5mHqNL0sDhR_pCa7T5DwtuZCwcQadUYaHl3gKk_zHWJsJ_6hiC3Z56c1MdJpjknG9wz9-ZjoYY4TYuMiFEPz3jiX1FRsS20F0IkJ89KICQzoxTTSRI63TXhvUZi2xdsOx3JvLqIMMdsKWHQeKAYKWBc8K1HIKaDWmpduAFoVTX_dl4D75_939OmnM4UbU3z2EjyHF5Faw5nwrw9VqYj5YLybKifkw4cAQ?fife=s16383" height="200" width="auto" /&gt;&lt;br&gt;&lt;br&gt;17/05/2026 - alle 17:45 un orso è stato ripreso mentre camminava su una forestale in zona Lago di Cei.</description>
        <styleUrl>#icon-1727-E65100</styleUrl>
        <ExtendedData>
          <Data name="gx_media_links">
            <value>https://mymaps.usercontent.google.com/hostedimage/m/*/3AAjQbR5ih3NO9HDWmODVjS-vHInfOw5mHqNL0sDhR_pCa7T5DwtuZCwcQadUYaHl3gKk_zHWJsJ_6hiC3Z56c1MdJpjknG9wz9-ZjoYY4TYuMiFEPz3jiX1FRsS20F0IkJ89KICQzoxTTSRI63TXhvUZi2xdsOx3JvLqIMMdsKWHQeKAYKWBc8K1HIKaDWmpduAFoVTX_dl4D75_939OmnM4UbU3z2EjyHF5Faw5nwrw9VqYj5YLybKifkw4cAQ?fife=s16383</value>
          </Data>
        </ExtendedData>
        <Point>
          <coordinates>
            11.0188368,45.9534308,0
          </coordinates>
        </Point>
      </Placemark>
      <Placemark>
        <name>Ponte di Ragoli</name>
        <description>&lt;img src="https://mymaps.usercontent.google.com/hostedimage/m/*/3AAjQbR7yNlddtAZEPe6EHc2rPVqIwmWN3oGDjMkmVb7lVezXg6j3cfKJiPKtIs0EE7Z1VV5BCx0hyV2iar9UP_Ymeqa-suWkroIwlOfqaDc4r0wpk3zVBip7O0R2wUmuvou3CM2UWPcsnMH0P6E0v7GlAKJTa-LDE-98zkvRDm7_5uroccovo1egfOEOo5_ftkqVxkkifPUHVgAqVXC6m7zuFGxboNgy7IiXujZmEfw8hPYYS3d4xQwowE7uTEM?fife=s16383" height="200" width="auto" /&gt;&lt;br&gt;&lt;br&gt;14/05/2026. Avvistato a lato statale alle ore 20</description>
        <styleUrl>#icon-1727-E65100</styleUrl>
        <ExtendedData>
          <Data name="gx_media_links">
            <value>https://mymaps.usercontent.google.com/hostedimage/m/*/3AAjQbR7yNlddtAZEPe6EHc2rPVqIwmWN3oGDjMkmVb7lVezXg6j3cfKJiPKtIs0EE7Z1VV5BCx0hyV2iar9UP_Ymeqa-suWkroIwlOfqaDc4r0wpk3zVBip7O0R2wUmuvou3CM2UWPcsnMH0P6E0v7GlAKJTa-LDE-98zkvRDm7_5uroccovo1egfOEOo5_ftkqVxkkifPUHVgAqVXC6m7zuFGxboNgy7IiXujZmEfw8hPYYS3d4xQwowE7uTEM?fife=s16383</value>
          </Data>
        </ExtendedData>
        <Point>
          <coordinates>
            10.7874337,46.0503343,0
          </coordinates>
        </Point>
      </Placemark>
      <Placemark>
        <name>Brione</name>
        <description>&lt;img src="https://mymaps.usercontent.google.com/hostedimage/m/*/3AAjQbR4xWZIL6qnQI1-JE6fu22-i9mAOUQYexjlnIk40RixtK1mbXB1EVYw1kGuiAMQBnfKSlgnRWq1U5HXDRAlz_7aA0QCY6uzdTsH8cKInxPW9ygPzciPIN7tB_GcGVfB0f08prBAEfD1YFnKvmke0P_1-jC_Ya0t4EF2kft-Fm815q9i7JmjIZjbdOrHC_jZNYIuCJb6y9_ygYQ_EQig85w36Zr9Ch7KrR7Fo_fZnEPCUEtlU6maiU5zaBZA?fife=s16383" height="200" width="auto" /&gt;&lt;br&gt;&lt;br&gt;Primi di luglio 2026, mattino, bordo strada</description>
        <styleUrl>#icon-1727-E65100</styleUrl>
        <ExtendedData>
          <Data name="gx_media_links">
            <value>https://mymaps.usercontent.google.com/hostedimage/m/*/3AAjQbR4xWZIL6qnQI1-JE6fu22-i9mAOUQYexjlnIk40RixtK1mbXB1EVYw1kGuiAMQBnfKSlgnRWq1U5HXDRAlz_7aA0QCY6uzdTsH8cKInxPW9ygPzciPIN7tB_GcGVfB0f08prBAEfD1YFnKvmke0P_1-jC_Ya0t4EF2kft-Fm815q9i7JmjIZjbdOrHC_jZNYIuCJb6y9_ygYQ_EQig85w36Zr9Ch7KrR7Fo_fZnEPCUEtlU6maiU5zaBZA?fife=s16383</value>
          </Data>
        </ExtendedData>
        <Point>
          <coordinates>
            10.5866603,45.8961224,0
          </coordinates>
        </Point>
      </Placemark>
      <Placemark>
        <name>Ranzo</name>
        <description>&lt;img src="https://mymaps.usercontent.google.com/hostedimage/m/*/3AAjQbR47DH245NqeIrquUC4K-v0e-BvuXraUMTSNv98zlMQgj_McOS13DfKXae_CfREE2gEcVV_Z-YWz77oincbBE8uEZWZO0Hgt5GXvKTGuDwSkQt-yBKYHeh3KS2SCtAXwGVY-Zzvgfd1zlHLKocOGeznVjeSnQsa9hL3Wh18lhYQwrL5hWNR3SuybN8rKu5nm4YRfOU5d--z9n2rYIFDE_VAkuo2Ta5158ndxV75_5DH2drNKUoVsYPvpPGs?fife=s16383" height="200" width="auto" /&gt;&lt;br&gt;&lt;br&gt;29/05/2026 - un orso è stato ripreso in piemo giorno mentre correva sulla provinciale 18 dir. che sale a Ranzo da Lon.</description>
        <styleUrl>#icon-1727-E65100</styleUrl>
        <ExtendedData>
          <Data name="gx_media_links">
            <value>https://mymaps.usercontent.google.com/hostedimage/m/*/3AAjQbR47DH245NqeIrquUC4K-v0e-BvuXraUMTSNv98zlMQgj_McOS13DfKXae_CfREE2gEcVV_Z-YWz77oincbBE8uEZWZO0Hgt5GXvKTGuDwSkQt-yBKYHeh3KS2SCtAXwGVY-Zzvgfd1zlHLKocOGeznVjeSnQsa9hL3Wh18lhYQwrL5hWNR3SuybN8rKu5nm4YRfOU5d--z9n2rYIFDE_VAkuo2Ta5158ndxV75_5DH2drNKUoVsYPvpPGs?fife=s16383</value>
          </Data>
        </ExtendedData>
        <Point>
          <coordinates>
            10.961789,46.0646333,0
          </coordinates>
        </Point>
      </Placemark>
      <Placemark>
        <name>Maso Ariol2</name>
        <description>&lt;img src="https://mymaps.usercontent.google.com/hostedimage/m/*/3AAjQbR60IoK7WC-IKsGDE2QLnqMbeFmTajgFgX4gTj9BRSN1EVRc37pVuEgiABC6eSV8GEFJeY7viEOGlBQmntsT16v5418Mn8hSYU6v4qRd7dqqSIL-cfHOzxKR5V1A3tfmhoUH5uAQOkak1E3fL2sAapxcJ3WNn7EeWT6v-qClTJSq6Q-ehjMF1Txqtmf_LaFO0D7dRBXlx75hbFW5x9Ng8zSfWY98ratwfLcmOERlnBP06rulBMyYJHH2Csc?fife=s16383" height="200" width="auto" /&gt;&lt;br&gt;&lt;br&gt;03/06/2026. Alcuni ragazzi che si recano a scuola vedono dallo scuolabus un giovane orso. Ore 06:30 del mattino. Nello stesso giorno quello o un altro orso entra nel cancello di una casa. </description>
        <styleUrl>#icon-1727-E65100</styleUrl>
        <ExtendedData>
          <Data name="gx_media_links">
            <value>https://mymaps.usercontent.google.com/hostedimage/m/*/3AAjQbR60IoK7WC-IKsGDE2QLnqMbeFmTajgFgX4gTj9BRSN1EVRc37pVuEgiABC6eSV8GEFJeY7viEOGlBQmntsT16v5418Mn8hSYU6v4qRd7dqqSIL-cfHOzxKR5V1A3tfmhoUH5uAQOkak1E3fL2sAapxcJ3WNn7EeWT6v-qClTJSq6Q-ehjMF1Txqtmf_LaFO0D7dRBXlx75hbFW5x9Ng8zSfWY98ratwfLcmOERlnBP06rulBMyYJHH2Csc?fife=s16383</value>
          </Data>
        </ExtendedData>
        <Point>
          <coordinates>
            11.0270305,46.1061585,0
          </coordinates>
        </Point>
      </Placemark>
      <Placemark>
        <name>Mostizzolo</name>
        <description>&lt;img src="https://mymaps.usercontent.google.com/hostedimage/m/*/3AAjQbR4cR7z5ahetwyorN-enmvO4ae0amL_ZURx5BDbitzNwhs4VIY2yF3ZjPdaAUij84IhYKhBxuHhOFG5zI_dJ2tiJe6ddPk3eKO30rtYJ0RgEPaZK11yIF-5ScDm-C_gh78JiZlk0yNaTNz_pxL_myplcXh5IOUI5pTa2sCfkInooBBFP5mvgtWDiPBw9rewbEhgyfFJvCbscRL-U8RdAlFDWqXFHLXtu5_3BPM_6-ziCswS6jF7ekAOXlpo?fife=s16383" height="200" width="auto" /&gt;&lt;br&gt;&lt;br&gt;22/06/2026 - Orso ripreso mentre cammina sulla ciclabile della Val di Sole presso Mostizzolo</description>
        <styleUrl>#icon-1727-E65100</styleUrl>
        <ExtendedData>
          <Data name="gx_media_links">
            <value>https://mymaps.usercontent.google.com/hostedimage/m/*/3AAjQbR4cR7z5ahetwyorN-enmvO4ae0amL_ZURx5BDbitzNwhs4VIY2yF3ZjPdaAUij84IhYKhBxuHhOFG5zI_dJ2tiJe6ddPk3eKO30rtYJ0RgEPaZK11yIF-5ScDm-C_gh78JiZlk0yNaTNz_pxL_myplcXh5IOUI5pTa2sCfkInooBBFP5mvgtWDiPBw9rewbEhgyfFJvCbscRL-U8RdAlFDWqXFHLXtu5_3BPM_6-ziCswS6jF7ekAOXlpo?fife=s16383</value>
          </Data>
        </ExtendedData>
        <Point>
          <coordinates>
            11.010906,46.392339,0
          </coordinates>
        </Point>
      </Placemark>
      <Placemark>
        <name>Cavizzana</name>
        <description>&lt;img src="https://mymaps.usercontent.google.com/hostedimage/m/*/3AAjQbR5I79u-AmGwRaEtIJFxQ4CFjXA-U2v0iqAODE4gq547PrvA1rhLEF6rW275UODggwHCH89CArCH6CO8yDfpUTmwZKMovi0X0iceklezfCtlFY3HHHc02LVwj0oIAiGf1Xw72uxYkRrcQAR7k47bGyC0kSWiG-H532e5tNG_x8ugh3GNQtSyoJu64Hy91Cx5eTvJOJ_aC4jJd04_G6LfTG_grYUDcZSqVKU0lZVnQhucAzRV4V-NRFlmPWY?fife=s16383" height="200" width="auto" /&gt;&lt;br&gt;&lt;br&gt;21/05/2026 : un orso viene ripreso mentre cammina lungo una strada forestale sopra l'abitato</description>
        <styleUrl>#icon-1727-E65100</styleUrl>
        <ExtendedData>
          <Data name="gx_media_links">
            <value>https://mymaps.usercontent.google.com/hostedimage/m/*/3AAjQbR5I79u-AmGwRaEtIJFxQ4CFjXA-U2v0iqAODE4gq547PrvA1rhLEF6rW275UODggwHCH89CArCH6CO8yDfpUTmwZKMovi0X0iceklezfCtlFY3HHHc02LVwj0oIAiGf1Xw72uxYkRrcQAR7k47bGyC0kSWiG-H532e5tNG_x8ugh3GNQtSyoJu64Hy91Cx5eTvJOJ_aC4jJd04_G6LfTG_grYUDcZSqVKU0lZVnQhucAzRV4V-NRFlmPWY?fife=s16383</value>
          </Data>
        </ExtendedData>
        <Point>
          <coordinates>
            10.965094,46.363345,0
          </coordinates>
        </Point>
      </Placemark>
      <Placemark>
        <name>Borgo Valle Chiese</name>
        <description>&lt;img src="https://mymaps.usercontent.google.com/hostedimage/m/*/3AAjQbR7K11qeo7CXVSfFb_s_GnVXFyExyd8jmxh4dkrIsL6h4T_WZOmzjTcvqOG_jsvRPAfOfkD6wDoNXsONVgar6HbbodviogBhWFpApYIA4ekg7CN0ckLPabOfr998bbxhYX7Z_20j2nk0oR082jfOMKqxpBaQz-JQAwCxDIdC29fz48foPp7dL5Pi4NaZE8pHiE1QANwQ7mt1G_MJ2VE4X_MhflCcOpsr3XB4R78ygGgjegUVlPLqoyEtwKY?fife=s16383" height="200" width="auto" /&gt;&lt;br&gt;&lt;br&gt;31/05/2026 - Un orso è stato ripreso accanto a un rustico ai bordi di una strada asfaltata che conduce verso il Broffione. Nel video si osserva anche una casa di abitazione. Di giorno.</description>
        <styleUrl>#icon-1727-E65100</styleUrl>
        <ExtendedData>
          <Data name="gx_media_links">
            <value>https://mymaps.usercontent.google.com/hostedimage/m/*/3AAjQbR7K11qeo7CXVSfFb_s_GnVXFyExyd8jmxh4dkrIsL6h4T_WZOmzjTcvqOG_jsvRPAfOfkD6wDoNXsONVgar6HbbodviogBhWFpApYIA4ekg7CN0ckLPabOfr998bbxhYX7Z_20j2nk0oR082jfOMKqxpBaQz-JQAwCxDIdC29fz48foPp7dL5Pi4NaZE8pHiE1QANwQ7mt1G_MJ2VE4X_MhflCcOpsr3XB4R78ygGgjegUVlPLqoyEtwKY?fife=s16383</value>
          </Data>
        </ExtendedData>
        <Point>
          <coordinates>
            10.591817,45.934712,0
          </coordinates>
        </Point>
      </Placemark>
      <Placemark>
        <name>Lamar</name>
        <description>&lt;img src="https://mymaps.usercontent.google.com/hostedimage/m/*/3AAjQbR7P1bxG5jGxa20e9nhzNewdWCQQVKWqqI96n5-teReOWTVxav1cGTjsy5NYjbAWahItqWEr3UbuCTgKaV4hmCMop9Y0XdwsoG9DnLAhO3Jsr-hhriFPYoBxpV3IxWIu2Xu_-D2NTkHviBty9AM6a_87RUacdO6VadYqd2a262ObNZSPt7zxPb286xtaueX7PxicBLSqBfYr3_mMecso0PiqAivkbMe5Yoecuekg_zWIjnl_QRdpi5EATbE?fife=s16383" height="200" width="auto" /&gt;&lt;br&gt;&lt;br&gt;PHONE_0010 - Turisti veneti riprendono in pieno giorno un orso che nuota</description>
        <styleUrl>#icon-1727-E65100</styleUrl>
        <ExtendedData>
          <Data name="gx_media_links">
            <value>https://mymaps.usercontent.google.com/hostedimage/m/*/3AAjQbR7P1bxG5jGxa20e9nhzNewdWCQQVKWqqI96n5-teReOWTVxav1cGTjsy5NYjbAWahItqWEr3UbuCTgKaV4hmCMop9Y0XdwsoG9DnLAhO3Jsr-hhriFPYoBxpV3IxWIu2Xu_-D2NTkHviBty9AM6a_87RUacdO6VadYqd2a262ObNZSPt7zxPb286xtaueX7PxicBLSqBfYr3_mMecso0PiqAivkbMe5Yoecuekg_zWIjnl_QRdpi5EATbE?fife=s16383</value>
          </Data>
        </ExtendedData>
        <Point>
          <coordinates>
            11.063495,46.130129,0
          </coordinates>
        </Point>
      </Placemark>
      <Placemark>
        <name>Lamar2</name>
        <description>&lt;img src="https://mymaps.usercontent.google.com/hostedimage/m/*/3AAjQbR6kf4d9bFikQZZGNQda2IqfW0OZgPKfwT_b5503pE6OGe1BDBiQPHuakkzbd_mci3lApf87OiZSZTy5Px9jnQinPdXggD7kQJ9MpLLzDGbZ8v3NpCfcXKF4EVw4H9-pKFdJGzvXydJmsBlqgoomerVtW6DtT57ncB6oxxv4AoupRhKVLFXNaijdlyHn890X6GhSB6yVF3CezxwR9e3jbsAU9O4jmXnKa2yHUoN1KSUV1Qty2hx1zia6Uq8?fife=s16383" height="200" width="auto" /&gt;&lt;br&gt;&lt;br&gt;Lago di Lamar (Terlago, Vallelaghi), 16 maggio, ore 8: un orso viene fotografato nel bosco ai bordi della strada </description>
        <styleUrl>#icon-1727-E65100</styleUrl>
        <ExtendedData>
          <Data name="gx_media_links">
            <value>https://mymaps.usercontent.google.com/hostedimage/m/*/3AAjQbR6kf4d9bFikQZZGNQda2IqfW0OZgPKfwT_b5503pE6OGe1BDBiQPHuakkzbd_mci3lApf87OiZSZTy5Px9jnQinPdXggD7kQJ9MpLLzDGbZ8v3NpCfcXKF4EVw4H9-pKFdJGzvXydJmsBlqgoomerVtW6DtT57ncB6oxxv4AoupRhKVLFXNaijdlyHn890X6GhSB6yVF3CezxwR9e3jbsAU9O4jmXnKa2yHUoN1KSUV1Qty2hx1zia6Uq8?fife=s16383</value>
          </Data>
        </ExtendedData>
        <Point>
          <coordinates>
            11.05876,46.123943,0
          </coordinates>
        </Point>
      </Placemark>
      <Placemark>
        <name>Molveno</name>
        <description>&lt;img src="https://mymaps.usercontent.google.com/hostedimage/m/*/3AAjQbR6Tga_BU6pra3Q3WcvA0GJEaFy1MgrKRVM2qfxVkZdt_Z4yfkUni5ooTvCWH_6jdb83uJ9mb_UpI9A3H-G8meYqikA5q725Sh4I_IohsONSNcsz8sM1qfxUHrsnyZmOq-cnS9S0L3RUi0H6aLmfOTen8Swed6orUgEUBYABl5xRswe7gTRRzjvvsgd9wa2TqJjy3RablasWmPSywhXYc0kOszwSpYRFNN3u9QCsS781kYhJ-4Qbms-GNkw?fife=s16383" height="200" width="auto" /&gt;&lt;br&gt;&lt;br&gt;4/06/2026. Due orsi giovani (probabilmente in procinto di separarsi) sono stati fotografati a tarda sera ai bordi della ss 421, al km 18 (zona artigianale).  a meno di 200 m dall’Agritur Ai Castioni, a 400 m dal Bar La Perla.</description>
        <styleUrl>#icon-1727-E65100</styleUrl>
        <ExtendedData>
          <Data name="gx_media_links">
            <value>https://mymaps.usercontent.google.com/hostedimage/m/*/3AAjQbR6Tga_BU6pra3Q3WcvA0GJEaFy1MgrKRVM2qfxVkZdt_Z4yfkUni5ooTvCWH_6jdb83uJ9mb_UpI9A3H-G8meYqikA5q725Sh4I_IohsONSNcsz8sM1qfxUHrsnyZmOq-cnS9S0L3RUi0H6aLmfOTen8Swed6orUgEUBYABl5xRswe7gTRRzjvvsgd9wa2TqJjy3RablasWmPSywhXYc0kOszwSpYRFNN3u9QCsS781kYhJ-4Qbms-GNkw?fife=s16383</value>
          </Data>
        </ExtendedData>
        <Point>
          <coordinates>
            10.976558,46.147976,0
          </coordinates>
        </Point>
      </Placemark>
      <Placemark>
        <name>Vaneze</name>
        <description>&lt;img src="https://mymaps.usercontent.google.com/hostedimage/m/*/3AAjQbR7ck_RzBOgXA-rB5kxZjnkWqjqrQLG78atnd3-_KorWJo4ZxvMCou8eEEo8_mZM0xpfuuYthbD5RURYHWQ28jHdq8bKh9hrlqpFa518hgSdWwrxKVd96GeA4-XZM_aVm5VNXamYKU-6n3R54Md264nHuyTtyweC8d9Lee0APTnVEDUgFjLartVzZ9gvUm6uL3A2Dn4FnfWSXeW0wOlKxB3U8AvuWN9OafyvhSI34Sykxudum2ccfIzvLEo?fife=s16383" height="200" width="auto" /&gt;&lt;br&gt;&lt;br&gt;(06/07/2026). In via dei Daini a Vaneze, località turistica del Bondone in comune di Trento. Ore 15:00, pieno giorno. E' nell'abitato (case e alberghi sono immersi nel verde).</description>
        <styleUrl>#icon-1727-E65100</styleUrl>
        <ExtendedData>
          <Data name="gx_media_links">
            <value>https://mymaps.usercontent.google.com/hostedimage/m/*/3AAjQbR7ck_RzBOgXA-rB5kxZjnkWqjqrQLG78atnd3-_KorWJo4ZxvMCou8eEEo8_mZM0xpfuuYthbD5RURYHWQ28jHdq8bKh9hrlqpFa518hgSdWwrxKVd96GeA4-XZM_aVm5VNXamYKU-6n3R54Md264nHuyTtyweC8d9Lee0APTnVEDUgFjLartVzZ9gvUm6uL3A2Dn4FnfWSXeW0wOlKxB3U8AvuWN9OafyvhSI34Sykxudum2ccfIzvLEo?fife=s16383</value>
          </Data>
        </ExtendedData>
        <Point>
          <coordinates>
            11.0724482,46.0534204,0
          </coordinates>
        </Point>
      </Placemark>
      <Placemark>
        <name>Castel Belfort</name>
        <description>02/07/2026.  Visto attraversare la strada da automobilista alle 21 circa</description>
        <styleUrl>#icon-1727-E65100</styleUrl>
        <Point>
          <coordinates>
            11.0407197,46.2058892,0
          </coordinates>
        </Point>
      </Placemark>
      <Placemark>
        <name>Maso Ariol</name>
        <description>30/06/2026 - Orso avvistato nel campo al bivio tra Monte Terlago e Maso Ariol, ore 12:30</description>
        <styleUrl>#icon-1727-E65100</styleUrl>
        <Point>
          <coordinates>
            11.0325955,46.1066377,0
          </coordinates>
        </Point>
      </Placemark>
      <Placemark>
        <name>SS43 km 0,2</name>
        <description>&lt;a href="https://www.youtube.com/watch?v=W-Uqz_Xs2kw"&gt;&lt;img src="https://img.youtube.com/vi/W-Uqz_Xs2kw/hqdefault.jpg" height="200" width="auto" /&gt;&lt;/a&gt;&lt;br&gt;&lt;br&gt;&lt;a href="https://www.youtube.com/embed/W-Uqz_Xs2kw"&gt;https://www.youtube.com/embed/W-Uqz_Xs2kw&lt;/a&gt;&lt;br&gt;&lt;br&gt;Al km 0,2 della SS43 all'uscita della galleria ferroviaria. Avvistato un orso a monte della strada</description>
        <styleUrl>#icon-1727-E65100</styleUrl>
        <ExtendedData>
          <Data name="gx_media_links">
            <value>https://www.youtube.com/embed/W-Uqz_Xs2kw</value>
          </Data>
        </ExtendedData>
        <Point>
          <coordinates>
            11.0131882,46.3908389,0
          </coordinates>
        </Point>
      </Placemark>
      <Placemark>
        <name>Vezzano</name>
        <description>02/08/2026. Vezzani (Vallelaghi). Avvistato cucciolo su sentiero sotto pilone elettrodotto, quasi all'inizio di Strada forestale Spigozaia</description>
        <styleUrl>#icon-1727-E65100</styleUrl>
        <Point>
          <coordinates>
            11.0093812,46.0689522,0
          </coordinates>
        </Point>
      </Placemark>
      <Placemark>
        <name>Baita dei Manzi</name>
        <description>05/08/2026. Mezzacorona. Avvistato orso nei pressi di Baita dei Manzi</description>
        <styleUrl>#icon-1727-E65100</styleUrl>
        <Point>
          <coordinates>
            11.1030488,46.2307706,0
          </coordinates>
        </Point>
      </Placemark>
      <Placemark>
        <name>Lavaman1</name>
        <description>&lt;img src="https://mymaps.usercontent.google.com/hostedimage/m/*/3AAjQbR5zYWlD1UxqiigZ1YEqEEzj-ZAwI5DuvXrO89xVBrs4Y331Ejh2C_nvklD7hgJXD_WWtf1QJB8pY0ZVwypwy5HLBSIItberxO2p0_o1YdIaTpVlHS3stsPDhku9zLpCqMpSSxJKyjlgnlcG2GSIiWH6zJHSyMWjwPPsSTGIOYxckH2eFCflWHh3ydh6bA44Li4LGqBQ3WfemQGitygfEB5t7qaNGO87JMLSjxI6mmPqFx0BkHWT9gdPQqM?fife=s16383" height="200" width="auto" /&gt;&lt;br&gt;&lt;br&gt;05/08/2026. Vason del Monte Bondone. Orso passeggiava sulla Pista Lavaman</description>
        <styleUrl>#icon-1727-E65100</styleUrl>
        <ExtendedData>
          <Data name="gx_media_links">
            <value>https://mymaps.usercontent.google.com/hostedimage/m/*/3AAjQbR5zYWlD1UxqiigZ1YEqEEzj-ZAwI5DuvXrO89xVBrs4Y331Ejh2C_nvklD7hgJXD_WWtf1QJB8pY0ZVwypwy5HLBSIItberxO2p0_o1YdIaTpVlHS3stsPDhku9zLpCqMpSSxJKyjlgnlcG2GSIiWH6zJHSyMWjwPPsSTGIOYxckH2eFCflWHh3ydh6bA44Li4LGqBQ3WfemQGitygfEB5t7qaNGO87JMLSjxI6mmPqFx0BkHWT9gdPQqM?fife=s16383</value>
          </Data>
        </ExtendedData>
        <Point>
          <coordinates>
            11.0680021,46.0420747,0
          </coordinates>
        </Point>
      </Placemark>
      <Placemark>
        <name>Vason</name>
        <description>&lt;img src="https://mymaps.usercontent.google.com/hostedimage/m/*/3AAjQbR713XOmK44dIEXWFkhqMRHWzr7WidEnc3_nh8I0-AjSY-mGFXV2tsvwb7PbwY5Wnp33Ds0kNoBKmAfwv6rN4X2usrF-mnxuuW1voV_Exhj8btQp_pUShqk3h9YUthVangep1z-cLji5fMIOID2k1U8QNrG0fxk8dKzT_lRoOACKsHv75ld-O0-ekvJAyFeK0pF796kodjV3Ojiz9X_-Xj0wxXXnlqC87hePiR9aubGErQylGnCF84e4XTw?fife=s16383" height="200" width="auto" /&gt;&lt;br&gt;&lt;br&gt;03/08/2026. Sul sentiero che da Vason scende alle Viote è stato avvistato un orso</description>
        <styleUrl>#icon-1727-E65100</styleUrl>
        <ExtendedData>
          <Data name="gx_media_links">
            <value>https://mymaps.usercontent.google.com/hostedimage/m/*/3AAjQbR713XOmK44dIEXWFkhqMRHWzr7WidEnc3_nh8I0-AjSY-mGFXV2tsvwb7PbwY5Wnp33Ds0kNoBKmAfwv6rN4X2usrF-mnxuuW1voV_Exhj8btQp_pUShqk3h9YUthVangep1z-cLji5fMIOID2k1U8QNrG0fxk8dKzT_lRoOACKsHv75ld-O0-ekvJAyFeK0pF796kodjV3Ojiz9X_-Xj0wxXXnlqC87hePiR9aubGErQylGnCF84e4XTw?fife=s16383</value>
          </Data>
        </ExtendedData>
        <Point>
          <coordinates>
            11.0467034,46.0371097,0
          </coordinates>
        </Point>
      </Placemark>
      <Placemark>
        <name>Aldeno</name>
        <description>06/08/2026. Aldeno. Salendo a Cimone sulla SP</description>
        <styleUrl>#icon-1727-E65100</styleUrl>
        <Point>
          <coordinates>
            11.0767763,45.981709,0
          </coordinates>
        </Point>
      </Placemark>
      <Placemark>
        <name>Val Brenta</name>
        <description>20/07/2026.  Pinzolo. A una ragazza di 17 che camminava da sola nella valle un orso ha attraversato la strada</description>
        <styleUrl>#icon-1727-E65100</styleUrl>
        <Point>
          <coordinates>
            10.8434563,46.1956004,0
          </coordinates>
        </Point>
      </Placemark>
      <Placemark>
        <name>Vanese 2</name>
        <description>&lt;img src="https://mymaps.usercontent.google.com/hostedimage/m/*/3AAjQbR62apt9wHlst7gA4cUwF5LEW-6bYR549kXknVJLNjnLpSYTB04YuuX8VH725fO0N-e6Wqw5EawqtCmsBFnDrHcg0dMcoOx6hXKW214wRbY08l1WdJvLdSA6F_bYDmlT07CerGwKuVFwPaabLU4stb3xSsANLFBzG_5fKYUFI-GRNHNH8sVq9GsLfmOJpcPVE7MRxuSl1upWzKef9IAAUqAOH-iJWGU7b9mKjkWAra4YtLQD4twmIAdOm7I?fife=s16383" height="200" width="auto" /&gt;&lt;br&gt;&lt;br&gt;(08/08/2026). 19:00. Orso avvistato a Vaneze</description>
        <styleUrl>#icon-1727-E65100</styleUrl>
        <ExtendedData>
          <Data name="gx_media_links">
            <value>https://mymaps.usercontent.google.com/hostedimage/m/*/3AAjQbR62apt9wHlst7gA4cUwF5LEW-6bYR549kXknVJLNjnLpSYTB04YuuX8VH725fO0N-e6Wqw5EawqtCmsBFnDrHcg0dMcoOx6hXKW214wRbY08l1WdJvLdSA6F_bYDmlT07CerGwKuVFwPaabLU4stb3xSsANLFBzG_5fKYUFI-GRNHNH8sVq9GsLfmOJpcPVE7MRxuSl1upWzKef9IAAUqAOH-iJWGU7b9mKjkWAra4YtLQD4twmIAdOm7I?fife=s16383</value>
          </Data>
        </ExtendedData>
        <Point>
          <coordinates>
            11.072122,46.0527897,0
          </coordinates>
        </Point>
      </Placemark>
      <Placemark>
        <name>Strada Brigolina 2</name>
        <description>&lt;a href="https://www.youtube.com/watch?v=0ZDYDmtdzcs"&gt;&lt;img src="https://img.youtube.com/vi/0ZDYDmtdzcs/hqdefault.jpg" height="200" width="auto" /&gt;&lt;/a&gt;&lt;br&gt;&lt;br&gt;&lt;a href="https://www.youtube.com/embed/0ZDYDmtdzcs"&gt;https://www.youtube.com/embed/0ZDYDmtdzcs&lt;/a&gt;&lt;br&gt;&lt;br&gt;9/8/2026, ore 11:00 Strada Malga Brigolina. Monte Bondone, Trento</description>
        <styleUrl>#icon-1727-E65100</styleUrl>
        <ExtendedData>
          <Data name="gx_media_links">
            <value>https://www.youtube.com/embed/0ZDYDmtdzcs</value>
          </Data>
        </ExtendedData>
        <Point>
          <coordinates>
            11.045792,46.0500851,0
          </coordinates>
        </Point>
      </Placemark>
      <Placemark>
        <name>Pra della Fava</name>
        <description>9/8/2026, 14:00. Strada forestale nei presso del Pra della Fava (Veneze del Monte Bondone, Trento)</description>
        <styleUrl>#icon-1727-E65100</styleUrl>
        <Point>
          <coordinates>
            11.0721794,46.0621984,0
          </coordinates>
        </Point>
      </Placemark>
      <Placemark>
        <name>PERSON_0005</name>
        <description>&lt;a href="https://www.youtube.com/watch?v=y_U-sS5lOXI"&gt;&lt;img src="https://img.youtube.com/vi/y_U-sS5lOXI/hqdefault.jpg" height="200" width="auto" /&gt;&lt;/a&gt;&lt;br&gt;&lt;br&gt;&lt;a href="https://www.youtube.com/embed/y_U-sS5lOXI"&gt;https://www.youtube.com/embed/y_U-sS5lOXI&lt;/a&gt;&lt;br&gt;&lt;br&gt;Avvistamento 10/8/2026, ore 13:30. PERSON_0006 del Monte Bondone</description>
        <styleUrl>#icon-1727-E65100</styleUrl>
        <ExtendedData>
          <Data name="gx_media_links">
            <value>https://www.youtube.com/embed/y_U-sS5lOXI</value>
          </Data>
        </ExtendedData>
        <Point>
          <coordinates>
            11.0463077,46.0338129,0
          </coordinates>
        </Point>
      </Placemark>
      <Placemark>
        <name>Parolet</name>
        <description>PHONE_0011:00 orso nel bosco avvistato dal sentiero che dalla pedemontana va al Parolet</description>
        <styleUrl>#icon-1727-E65100</styleUrl>
        <Point>
          <coordinates>
            11.0621946,46.019359,0
          </coordinates>
        </Point>
      </Placemark>
      <Placemark>
        <name>Montesel 2</name>
        <description>PHONE_0012:00? Un gruppo di ragazzi vede un orso al Montesel e i forestali li accompagnano a valle</description>
        <styleUrl>#icon-1727-E65100</styleUrl>
        <Point>
          <coordinates>
            11.066526,46.0388571,0
          </coordinates>
        </Point>
      </Placemark>
      <Placemark>
        <name>Vallene 2</name>
        <description>PHONE_0013:30 (poi ancora in zona alle 21:15) Vallene di Terlago (comune Vallelaghi)</description>
        <styleUrl>#icon-1727-E65100</styleUrl>
        <Point>
          <coordinates>
            11.042881,46.1104239,0
          </coordinates>
        </Point>
      </Placemark>
    </Folder>
    <Folder>
      <name>Avvistamento orsa + cuccioli</name>
      <Placemark>
        <name>Val Angone</name>
        <description>&lt;img src="https://mymaps.usercontent.google.com/hostedimage/m/*/3AAjQbR7C6mfrzgN8TRH_HlabpUelXu7xbEqmBHGMJ9uxY-p0GrG-3BvWCmYouL21-rL2UBT0L2XT1Mpl5jLIiB1LpfzdcSJVxFsN9VoXcl7nvVI9tvxx9AAcvGwTU6xKd0L1nPPTCyJqA_vwB-2sw-hbUBs_277H0pBnKABq5J1B1MaZ-q4nYkbRu2YDBWvTs3ooRdWCvI-WngU6dn0QP1a1dAzwUEfN7h-4wbD7yzp0HYwAbaahDPKM6518R5w?fife=s16383" height="200" width="auto" /&gt;&lt;br&gt;&lt;br&gt;07/07/2026. Orsa con due cuccioli avvistata a distanza</description>
        <styleUrl>#icon-1727-097138</styleUrl>
        <ExtendedData>
          <Data name="gx_media_links">
            <value>https://mymaps.usercontent.google.com/hostedimage/m/*/3AAjQbR7C6mfrzgN8TRH_HlabpUelXu7xbEqmBHGMJ9uxY-p0GrG-3BvWCmYouL21-rL2UBT0L2XT1Mpl5jLIiB1LpfzdcSJVxFsN9VoXcl7nvVI9tvxx9AAcvGwTU6xKd0L1nPPTCyJqA_vwB-2sw-hbUBs_277H0pBnKABq5J1B1MaZ-q4nYkbRu2YDBWvTs3ooRdWCvI-WngU6dn0QP1a1dAzwUEfN7h-4wbD7yzp0HYwAbaahDPKM6518R5w?fife=s16383</value>
          </Data>
        </ExtendedData>
        <Point>
          <coordinates>
            10.851535,46.0682366,0
          </coordinates>
        </Point>
      </Placemark>
      <Placemark>
        <name>Fogolari - Terlago - Vallelaghi</name>
        <description>&lt;img src="https://mymaps.usercontent.google.com/hostedimage/m/*/3AAjQbR71e-wD9UaT6KtKtCHZUF4ySf36PkmuY43oOlMB6hll1JK-PQDeGbY9S20h0oGzUhsjwMRXcPVzwHNrQk8iG7KnjxClDuOepX0B9KiKilc1z1VKyOm8T_EQYZlwNg80lEXTjzAbuClir9RxNuRamhokvOVKi0HVs0PMxJwUZhdyfVsaIhk2xctmw3VxdmpzTzBF1O_DQ0jHhQDJU_e2rB268BjMh1vP2UTNn0e3MPHHQUOmNuu9msri20s?fife=s16383" height="200" width="auto" /&gt;&lt;br&gt;&lt;br&gt;17/05/2026 - Orsa con due cuccioli fotografata in località Fogolari</description>
        <styleUrl>#icon-1727-097138</styleUrl>
        <ExtendedData>
          <Data name="gx_media_links">
            <value>https://mymaps.usercontent.google.com/hostedimage/m/*/3AAjQbR71e-wD9UaT6KtKtCHZUF4ySf36PkmuY43oOlMB6hll1JK-PQDeGbY9S20h0oGzUhsjwMRXcPVzwHNrQk8iG7KnjxClDuOepX0B9KiKilc1z1VKyOm8T_EQYZlwNg80lEXTjzAbuClir9RxNuRamhokvOVKi0HVs0PMxJwUZhdyfVsaIhk2xctmw3VxdmpzTzBF1O_DQ0jHhQDJU_e2rB268BjMh1vP2UTNn0e3MPHHQUOmNuu9msri20s?fife=s16383</value>
          </Data>
        </ExtendedData>
        <Point>
          <coordinates>
            11.053267,46.116094,0
          </coordinates>
        </Point>
      </Placemark>
      <Placemark>
        <name>Malga Stabio</name>
        <description>&lt;img src="https://mymaps.usercontent.google.com/hostedimage/m/*/3AAjQbR5EoSahyWxJK-2o-K87ANW8qIje0YOC2wRKb5wm5NXQbLGazmXuNS6tn1SBnA0vN2idp46UGsUJIYwsDV2eTCv4CzpF4uVvfqc4RC90GK9b8dpwPFTyf6kUq6AlB-tkbQgK_g2Yak7jS2E3I0ehFiL5_ws9mvnBa7xff3X5NBCdI3ruzfuZsuQhuxqv5JPXkVHbiG_-qTRE0DPvl7WlX07Y3CrSVgAYIjfwYoKRfj2Kn97-AlsA0_3QYS0?fife=s16383" height="200" width="auto" /&gt;&lt;br&gt;&lt;br&gt;30/06/2026 Orsa con due cucciolo avvistata a lato strada forestale per Malga Stabio</description>
        <styleUrl>#icon-1727-097138</styleUrl>
        <ExtendedData>
          <Data name="gx_media_links">
            <value>https://mymaps.usercontent.google.com/hostedimage/m/*/3AAjQbR5EoSahyWxJK-2o-K87ANW8qIje0YOC2wRKb5wm5NXQbLGazmXuNS6tn1SBnA0vN2idp46UGsUJIYwsDV2eTCv4CzpF4uVvfqc4RC90GK9b8dpwPFTyf6kUq6AlB-tkbQgK_g2Yak7jS2E3I0ehFiL5_ws9mvnBa7xff3X5NBCdI3ruzfuZsuQhuxqv5JPXkVHbiG_-qTRE0DPvl7WlX07Y3CrSVgAYIjfwYoKRfj2Kn97-AlsA0_3QYS0?fife=s16383</value>
          </Data>
        </ExtendedData>
        <Point>
          <coordinates>
            10.7825771,46.0280277,0
          </coordinates>
        </Point>
      </Placemark>
    </Folder>
    <Folder>
      <name>Escrementi ambito abitato</name>
      <Placemark>
        <name>Caldes</name>
        <description>&lt;img src="https://mymaps.usercontent.google.com/hostedimage/m/*/3AAjQbR5MRsN7ZQGAJKJtV1FQYAdxIFt_noSZvXk4vixSalQLZtGEFo2z9OMVAu8PFnBR73ymcQtn7qfyjJeGf7-N3lhDMo9849oVHb0XdSqOSVm6yfovhnqSRyCAVNu0VVLN4GmbaAyUNdcMjzmlfCkakVK5AWzg1Jmd2xH3h6xiL1LqLiykT3wQgbN3iew3sBBkm0WIHLr7Sq_ijoWJNl2SNiLZcq0RudoXYo1HIOPjmI56zABEacKs3V11mPk?fife=s16383" height="200" width="auto" /&gt;&lt;br&gt;&lt;br&gt;25/07/2026. Caldes. Di fronte alle scuole elementari alla base della scalinata della chiesa, alle 7:30 una signora con un cane trova fatte freschissime d'orso.</description>
        <styleUrl>#icon-1714-DB4436</styleUrl>
        <ExtendedData>
          <Data name="gx_media_links">
            <value>https://mymaps.usercontent.google.com/hostedimage/m/*/3AAjQbR5MRsN7ZQGAJKJtV1FQYAdxIFt_noSZvXk4vixSalQLZtGEFo2z9OMVAu8PFnBR73ymcQtn7qfyjJeGf7-N3lhDMo9849oVHb0XdSqOSVm6yfovhnqSRyCAVNu0VVLN4GmbaAyUNdcMjzmlfCkakVK5AWzg1Jmd2xH3h6xiL1LqLiykT3wQgbN3iew3sBBkm0WIHLr7Sq_ijoWJNl2SNiLZcq0RudoXYo1HIOPjmI56zABEacKs3V11mPk?fife=s16383</value>
          </Data>
        </ExtendedData>
        <Point>
          <coordinates>
            10.9444755,46.3657547,0
          </coordinates>
        </Point>
      </Placemark>
      <Placemark>
        <name>Ronzone</name>
        <description>&lt;img src="https://mymaps.usercontent.google.com/hostedimage/m/*/3AAjQbR4qFiCX6BaGC5vnrZcw9trnhq5LUj9oW13FBTEIGT-16EiLu08jdZHbFAoDi3iR1vM0cEBKbaB5o-Vq6tIhls1QbQlyKYic4sybm7JETaCqpElKiO9137y8hSMFly3z_9zeKbRoXPT-cyc3evW7CaaujHNQTAaWjDPlKQFohuSeU9Bm1CycrPQMAOOJ_hSLtIdL9W2GYSuWHyl_Ka-mZq1KOuAXxuii4EvSJZ_gkcsUHMSXWDyBCqC1Ofg?fife=s16383" height="200" width="auto" /&gt;&lt;br&gt;&lt;br&gt;12/07/2026. Accanto alle case di via Toval rinvenute fatte fresche di orso </description>
        <styleUrl>#icon-1899-DB4436</styleUrl>
        <ExtendedData>
          <Data name="gx_media_links">
            <value>https://mymaps.usercontent.google.com/hostedimage/m/*/3AAjQbR4qFiCX6BaGC5vnrZcw9trnhq5LUj9oW13FBTEIGT-16EiLu08jdZHbFAoDi3iR1vM0cEBKbaB5o-Vq6tIhls1QbQlyKYic4sybm7JETaCqpElKiO9137y8hSMFly3z_9zeKbRoXPT-cyc3evW7CaaujHNQTAaWjDPlKQFohuSeU9Bm1CycrPQMAOOJ_hSLtIdL9W2GYSuWHyl_Ka-mZq1KOuAXxuii4EvSJZ_gkcsUHMSXWDyBCqC1Ofg?fife=s16383</value>
          </Data>
        </ExtendedData>
        <Point>
          <coordinates>
            11.1543675,46.4205813,0
          </coordinates>
        </Point>
      </Placemark>
    </Folder>
    <Folder>
      <name>Fototrappolaggio</name>
      <Placemark>
        <name>Pelugo</name>
        <description>&lt;img src="https://mymaps.usercontent.google.com/hostedimage/m/*/3AAjQbR70ZEjLOyTGg89AUHtUCkTI5frm_GoQ6fwpL3ZuxPH1JRd2fbjH9IZ5oEGY_GFs2Pv2xaLodDCvrJLmZFZJUo6_QVFSesF7VODSeJoOGtPvwpe13_xtwnQfCqXGI2Nr_QJvHnKTtxiRjgSA23K19GY-Bx3-pJLIbi6JDJzvSLfDeSzT_o7EInfqXK-jszesduFzY1JU2aFmtEn-PLQ56zSeofsr_8BvqnmrJMUtXfYTMbD-BjY_EBqtWSA?fife=s16383" height="200" width="auto" /&gt;&lt;br&gt;&lt;br&gt;Pelugo PHONE_0014:50 </description>
        <styleUrl>#icon-1727-1A237E</styleUrl>
        <ExtendedData>
          <Data name="gx_media_links">
            <value>https://mymaps.usercontent.google.com/hostedimage/m/*/3AAjQbR70ZEjLOyTGg89AUHtUCkTI5frm_GoQ6fwpL3ZuxPH1JRd2fbjH9IZ5oEGY_GFs2Pv2xaLodDCvrJLmZFZJUo6_QVFSesF7VODSeJoOGtPvwpe13_xtwnQfCqXGI2Nr_QJvHnKTtxiRjgSA23K19GY-Bx3-pJLIbi6JDJzvSLfDeSzT_o7EInfqXK-jszesduFzY1JU2aFmtEn-PLQ56zSeofsr_8BvqnmrJMUtXfYTMbD-BjY_EBqtWSA?fife=s16383</value>
          </Data>
        </ExtendedData>
        <Point>
          <coordinates>
            10.7179227,46.0900408,0
          </coordinates>
        </Point>
      </Placemark>
      <Placemark>
        <name>Vezzano</name>
        <description>20/07/2026. Fototrappolaggio orsa con cuccioli</description>
        <styleUrl>#icon-1727-1A237E</styleUrl>
        <Point>
          <coordinates>
            10.9876316,46.0754364,0
          </coordinates>
        </Point>
      </Placemark>
      <Placemark>
        <name>Iron</name>
        <description>&lt;img src="https://mymaps.usercontent.google.com/hostedimage/m/*/3AAjQbR63CqiFQCyZ3K0xUrTslVZO1PzphtdpOZKGvm_HpXkuCZjtgREQCPq0O7ILF8zy-247UF1o16fEpzwiMYHMgsgeFsvOlV2A6mhcfcXOvzwcDGIgt7XKej742I65MkCRtKPb-LHm5ZET5kbkEgKUwMvN8d5f1IVD4e7P-fpfLo2R4KxAn7yU1jKfUSdHfrIdZZW9EKBDRoxjGjMIV2Pa_oSYAODBhyzGpTZfrWhDhIWYNIv_6HmRyKmcrGg?fife=s16383" height="200" width="auto" /&gt;&lt;br&gt;&lt;br&gt;19/04/2026. Ore 23 Località Bagiron, presso il borgo di Iron.</description>
        <styleUrl>#icon-1727-1A237E</styleUrl>
        <ExtendedData>
          <Data name="gx_media_links">
            <value>https://mymaps.usercontent.google.com/hostedimage/m/*/3AAjQbR63CqiFQCyZ3K0xUrTslVZO1PzphtdpOZKGvm_HpXkuCZjtgREQCPq0O7ILF8zy-247UF1o16fEpzwiMYHMgsgeFsvOlV2A6mhcfcXOvzwcDGIgt7XKej742I65MkCRtKPb-LHm5ZET5kbkEgKUwMvN8d5f1IVD4e7P-fpfLo2R4KxAn7yU1jKfUSdHfrIdZZW9EKBDRoxjGjMIV2Pa_oSYAODBhyzGpTZfrWhDhIWYNIv_6HmRyKmcrGg?fife=s16383</value>
          </Data>
        </ExtendedData>
        <Point>
          <coordinates>
            10.8106923,46.0633451,0
          </coordinates>
        </Point>
      </Placemark>
      <Placemark>
        <name>Zona Fontana Fila</name>
        <description>&lt;a href="https://www.youtube.com/watch?v=WaPOArGuZe0"&gt;&lt;img src="https://img.youtube.com/vi/WaPOArGuZe0/hqdefault.jpg" height="200" width="auto" /&gt;&lt;/a&gt;&lt;br&gt;&lt;br&gt;&lt;a href="https://www.youtube.com/embed/WaPOArGuZe0"&gt;https://www.youtube.com/embed/WaPOArGuZe0&lt;/a&gt;&lt;br&gt;&lt;br&gt;18/07/2026. Ore 19:47. Orso si serve in un frutteto in loc. Fontana Filia, fraz. Cadine, Comune di Trento</description>
        <styleUrl>#icon-1727-1A237E</styleUrl>
        <ExtendedData>
          <Data name="gx_media_links">
            <value>https://www.youtube.com/embed/WaPOArGuZe0</value>
          </Data>
        </ExtendedData>
        <Point>
          <coordinates>
            11.0681884,46.0988343,0
          </coordinates>
        </Point>
      </Placemark>
    </Folder>
    <Folder>
      <name>Casi controversi</name>
      <Placemark>
        <name>Ceresé</name>
        <description>&lt;img src="https://mymaps.usercontent.google.com/hostedimage/m/*/3AAjQbR7pFtIhmSY1-OoN3jsXEm0zS8z79rglbn-xtm0AorXNrTe6Nb9f2R_fRQbfeuYoRx2DoRFCGU1oSnIzU2mLGYyNfhoDT5icii67vU4b6MsehDllTFDnQmFFqtsqG2pzMOI7uNXDmrU0yQM1zBAxq7FTQSwnn99NUeLSHJdRj_LVAYBHxNBVS97tAzj9CzcFRJOL0EJOLFjmidpDpDkbnUdr-qaE7bl-P6mbQKasUyhUKAezx3nxZ-XBFa0?fife=s16383" height="200" width="auto" /&gt;&lt;br&gt;&lt;br&gt;19/08/2026 Tarda sera. Apparizione presunta nell'abitato della fraz. Ceresé di Val di Rabbi. La foto è stata indicata come "scherzo di ragazzi" dal sindaco. Per gli strumenti di IA è autentica ma probabilmente non è stata scattata a Ceresè. La rimuoveremo quando il sindaco svelerà la "fonte", ovvero smetterà di coprire gli autori di uno scherzo tutt'altro che innocente, sia per la qualità del supposto falso, sia per l'allarme e le polemiche indotte. A prova di una campagna di disinformazione in atto altre foto da IA (però palesemente taroccate) son circolate negli stessi giorni. </description>
        <styleUrl>#icon-1594-424242</styleUrl>
        <ExtendedData>
          <Data name="gx_media_links">
            <value>https://mymaps.usercontent.google.com/hostedimage/m/*/3AAjQbR7pFtIhmSY1-OoN3jsXEm0zS8z79rglbn-xtm0AorXNrTe6Nb9f2R_fRQbfeuYoRx2DoRFCGU1oSnIzU2mLGYyNfhoDT5icii67vU4b6MsehDllTFDnQmFFqtsqG2pzMOI7uNXDmrU0yQM1zBAxq7FTQSwnn99NUeLSHJdRj_LVAYBHxNBVS97tAzj9CzcFRJOL0EJOLFjmidpDpDkbnUdr-qaE7bl-P6mbQKasUyhUKAezx3nxZ-XBFa0?fife=s16383</value>
          </Data>
        </ExtendedData>
        <Point>
          <coordinates>
            10.8521735,46.4010261,0
          </coordinates>
        </Point>
      </Placemark>
    </Folder>
  </Document>
</kml>